{
  "type": "FeatureCollection",
  "features": [
    {
      "type": "Feature",
      "geometry": {
        "type": "Point",
        "coordinates": [
          -75.102563,
          39.8300674
        ]
      },
      "properties": {
        "@id": "node/318783163",
        "brand": "Dick's Sporting Goods",
        "brand:wikidata": "Q5272601",
        "brand:wikipedia": "en:Dick's Sporting Goods",
        "name": "Dick's Sporting Goods",
        "shop": "sports"
      },
      "id": "node/318783163"
    },
    {
      "type": "Feature",
      "geometry": {
        "type": "Point",
        "coordinates": [
          -74.6295804,
          39.4508931
        ]
      },
      "properties": {
        "@id": "node/642864150",
        "brand": "Dick's Sporting Goods",
        "brand:wikidata": "Q5272601",
        "brand:wikipedia": "en:Dick's Sporting Goods",
        "name": "Dick's Sporting Goods",
        "shop": "sports"
      },
      "id": "node/642864150"
    },
    {
      "type": "Feature",
      "geometry": {
        "type": "Point",
        "coordinates": [
          -74.8646357,
          40.1854708
        ]
      },
      "properties": {
        "@id": "node/683681482",
        "brand": "Dick's Sporting Goods",
        "brand:wikidata": "Q5272601",
        "brand:wikipedia": "en:Dick's Sporting Goods",
        "name": "Dick's Sporting Goods",
        "shop": "sports"
      },
      "id": "node/683681482"
    },
    {
      "type": "Feature",
      "geometry": {
        "type": "Point",
        "coordinates": [
          -71.7704818,
          42.2930028
        ]
      },
      "properties": {
        "@id": "node/876264870",
        "brand": "Dick's Sporting Goods",
        "brand:wikidata": "Q5272601",
        "brand:wikipedia": "en:Dick's Sporting Goods",
        "name": "Dick's Sporting Goods",
        "shop": "sports"
      },
      "id": "node/876264870"
    },
    {
      "type": "Feature",
      "geometry": {
        "type": "Point",
        "coordinates": [
          -76.805573,
          40.3120026
        ]
      },
      "properties": {
        "@id": "node/1554648188",
        "brand": "Dick's Sporting Goods",
        "brand:wikidata": "Q5272601",
        "brand:wikipedia": "en:Dick's Sporting Goods",
        "name": "Dick's Sporting Goods",
        "shop": "sports"
      },
      "id": "node/1554648188"
    },
    {
      "type": "Feature",
      "geometry": {
        "type": "Point",
        "coordinates": [
          -77.4492073,
          43.211336
        ]
      },
      "properties": {
        "@id": "node/1608145641",
        "addr:city": "Webster",
        "addr:housenumber": 1062,
        "addr:postcode": 14580,
        "addr:state": "NY",
        "addr:street": "Ridge Road",
        "brand": "Dick's Sporting Goods",
        "brand:wikidata": "Q5272601",
        "brand:wikipedia": "en:Dick's Sporting Goods",
        "name": "Dick's Sporting Goods",
        "nysgissam:nysaddresspointid": "MONR251950",
        "shop": "sports",
        "source": "Local Knowledge",
        "website": "https://www.dickssportinggoods.com/"
      },
      "id": "node/1608145641"
    },
    {
      "type": "Feature",
      "geometry": {
        "type": "Point",
        "coordinates": [
          -72.5760025,
          41.9951575
        ]
      },
      "properties": {
        "@id": "node/1647278259",
        "brand": "Dick's Sporting Goods",
        "brand:wikidata": "Q5272601",
        "brand:wikipedia": "en:Dick's Sporting Goods",
        "name": "Dick's Sporting Goods",
        "shop": "sports"
      },
      "id": "node/1647278259"
    },
    {
      "type": "Feature",
      "geometry": {
        "type": "Point",
        "coordinates": [
          -71.7147694,
          42.5249707
        ]
      },
      "properties": {
        "@id": "node/1671352458",
        "addr:housenumber": 56,
        "addr:street": "Orchard Hill Park Drive",
        "brand": "Dick's Sporting Goods",
        "brand:wikidata": "Q5272601",
        "brand:wikipedia": "en:Dick's Sporting Goods",
        "name": "Dick's Sporting Goods",
        "phone": "978-537-4081",
        "shop": "sports"
      },
      "id": "node/1671352458"
    },
    {
      "type": "Feature",
      "geometry": {
        "type": "Point",
        "coordinates": [
          -74.3722521,
          40.8093808
        ]
      },
      "properties": {
        "@id": "node/1847617290",
        "addr:city": "East Hanover",
        "addr:housenumber": 240,
        "addr:street": "Route 10 West",
        "brand": "Dick's Sporting Goods",
        "brand:wikidata": "Q5272601",
        "brand:wikipedia": "en:Dick's Sporting Goods",
        "name": "Dick's Sporting Goods",
        "shop": "sports",
        "source:name": "survey"
      },
      "id": "node/1847617290"
    },
    {
      "type": "Feature",
      "geometry": {
        "type": "Point",
        "coordinates": [
          -74.4018263,
          40.4555146
        ]
      },
      "properties": {
        "@id": "node/2104415957",
        "addr:city": "East Brunswick",
        "addr:housenumber": 325,
        "addr:postcode": "08816",
        "addr:state": "NJ",
        "addr:street": "NJ 18 South",
        "brand": "Dick's Sporting Goods",
        "brand:wikidata": "Q5272601",
        "brand:wikipedia": "en:Dick's Sporting Goods",
        "name": "Dick's Sporting Goods",
        "opening_hours": "Mo-Sa 09:00-21:00; Su 10:00-19:00",
        "phone": "732-651-3284",
        "ref": 148,
        "shop": "sports",
        "sport": "bicycle;fishing;racquet;ice_skating;multi",
        "website": "https://stores.dickssportinggoods.com/nj/east-brunswick/148/"
      },
      "id": "node/2104415957"
    },
    {
      "type": "Feature",
      "geometry": {
        "type": "Point",
        "coordinates": [
          -79.7966674,
          40.4269647
        ]
      },
      "properties": {
        "@id": "node/2195333064",
        "addr:city": "Monroeville",
        "addr:housenumber": 330,
        "addr:postcode": 15146,
        "addr:state": "PA",
        "addr:street": "Mall Circle Drive",
        "brand": "Dick's Sporting Goods",
        "brand:wikidata": "Q5272601",
        "brand:wikipedia": "en:Dick's Sporting Goods",
        "name": "Dick's Sporting Goods",
        "opening_hours": "Mo-Sa 09:00-21:00; Su 09:00-19:00",
        "opening_hours:covid19": "same",
        "phone": "+1-412-357-9001",
        "shop": "sports",
        "website": "https://www.dickssportinggoods.com/"
      },
      "id": "node/2195333064"
    },
    {
      "type": "Feature",
      "geometry": {
        "type": "Point",
        "coordinates": [
          -77.517769,
          38.7877927
        ]
      },
      "properties": {
        "@id": "node/2304260971",
        "brand": "Dick's Sporting Goods",
        "brand:wikidata": "Q5272601",
        "brand:wikipedia": "en:Dick's Sporting Goods",
        "name": "Dick's Sporting Goods",
        "shop": "sports"
      },
      "id": "node/2304260971"
    },
    {
      "type": "Feature",
      "geometry": {
        "type": "Point",
        "coordinates": [
          -77.5328517,
          39.1131625
        ]
      },
      "properties": {
        "@id": "node/2321176768",
        "addr:city": "Leesburg",
        "addr:housenumber": 1079,
        "addr:postcode": 20176,
        "addr:state": "VA",
        "addr:street": "Edwards Ferry Road Northeast",
        "brand": "Dick's Sporting Goods",
        "brand:wikidata": "Q5272601",
        "brand:wikipedia": "en:Dick's Sporting Goods",
        "name": "Dick's Sporting Goods",
        "opening_hours": "Mo-Sa 09:00-21:30; Su 10:00-19:00",
        "phone": "571-707-3344",
        "shop": "sports",
        "website": "https://stores.dickssportinggoods.com/va/leesburg/1226/"
      },
      "id": "node/2321176768"
    },
    {
      "type": "Feature",
      "geometry": {
        "type": "Point",
        "coordinates": [
          -71.5169239,
          41.8748983
        ]
      },
      "properties": {
        "@id": "node/2417264444",
        "brand": "Dick's Sporting Goods",
        "brand:wikidata": "Q5272601",
        "brand:wikipedia": "en:Dick's Sporting Goods",
        "name": "Dick's Sporting Goods",
        "shop": "sports"
      },
      "id": "node/2417264444"
    },
    {
      "type": "Feature",
      "geometry": {
        "type": "Point",
        "coordinates": [
          -76.6674744,
          39.9843596
        ]
      },
      "properties": {
        "@id": "node/2421164820",
        "addr:city": "York",
        "addr:housenumber": 2925,
        "addr:postcode": 17402,
        "addr:street": "Concord Road",
        "brand": "Dick's Sporting Goods",
        "brand:wikidata": "Q5272601",
        "brand:wikipedia": "en:Dick's Sporting Goods",
        "name": "Dick's Sporting Goods",
        "shop": "sports"
      },
      "id": "node/2421164820"
    },
    {
      "type": "Feature",
      "geometry": {
        "type": "Point",
        "coordinates": [
          -75.0471475,
          42.4471171
        ]
      },
      "properties": {
        "@id": "node/2508538606",
        "brand": "Dick's Sporting Goods",
        "brand:wikidata": "Q5272601",
        "brand:wikipedia": "en:Dick's Sporting Goods",
        "name": "Dick's Sporting Goods",
        "shop": "sports",
        "wheelchair": "yes"
      },
      "id": "node/2508538606"
    },
    {
      "type": "Feature",
      "geometry": {
        "type": "Point",
        "coordinates": [
          -77.4223626,
          39.032016
        ]
      },
      "properties": {
        "@id": "node/2630346884",
        "addr:city": "Sterling",
        "addr:housenumber": 21070,
        "addr:postcode": 20166,
        "addr:state": "VA",
        "addr:street": "Dulles Town Circle",
        "brand": "Dick's Sporting Goods",
        "brand:wikidata": "Q5272601",
        "brand:wikipedia": "en:Dick's Sporting Goods",
        "level": "0;1",
        "name": "Dick's Sporting Goods",
        "shop": "sports"
      },
      "id": "node/2630346884"
    },
    {
      "type": "Feature",
      "geometry": {
        "type": "Point",
        "coordinates": [
          -80.3133093,
          40.675382
        ]
      },
      "properties": {
        "@id": "node/2635588838",
        "brand": "Dick's Sporting Goods",
        "brand:wikidata": "Q5272601",
        "brand:wikipedia": "en:Dick's Sporting Goods",
        "name": "Dick's Sporting Goods",
        "shop": "sports"
      },
      "id": "node/2635588838"
    },
    {
      "type": "Feature",
      "geometry": {
        "type": "Point",
        "coordinates": [
          -75.6796783,
          40.0164033
        ]
      },
      "properties": {
        "@id": "node/2674320213",
        "brand": "Dick's Sporting Goods",
        "brand:wikidata": "Q5272601",
        "brand:wikipedia": "en:Dick's Sporting Goods",
        "name": "Dick's Sporting Goods",
        "shop": "sports"
      },
      "id": "node/2674320213"
    },
    {
      "type": "Feature",
      "geometry": {
        "type": "Point",
        "coordinates": [
          -74.3106732,
          40.6869966
        ]
      },
      "properties": {
        "@id": "node/2892672769",
        "brand": "Dick's Sporting Goods",
        "brand:wikidata": "Q5272601",
        "brand:wikipedia": "en:Dick's Sporting Goods",
        "name": "Dick's Sporting Goods",
        "shop": "sports"
      },
      "id": "node/2892672769"
    },
    {
      "type": "Feature",
      "geometry": {
        "type": "Point",
        "coordinates": [
          -73.4906184,
          44.7031254
        ]
      },
      "properties": {
        "@id": "node/2919674576",
        "brand": "Dick's Sporting Goods",
        "brand:wikidata": "Q5272601",
        "brand:wikipedia": "en:Dick's Sporting Goods",
        "name": "Dick's Sporting Goods",
        "shop": "sports"
      },
      "id": "node/2919674576"
    },
    {
      "type": "Feature",
      "geometry": {
        "type": "Point",
        "coordinates": [
          -78.3841322,
          40.4869747
        ]
      },
      "properties": {
        "@id": "node/3012509417",
        "addr:housename": "Dick's Sporting Goods",
        "brand": "Dick's Sporting Goods",
        "brand:wikidata": "Q5272601",
        "brand:wikipedia": "en:Dick's Sporting Goods",
        "name": "Dick's Sporting Goods",
        "shop": "sports"
      },
      "id": "node/3012509417"
    },
    {
      "type": "Feature",
      "geometry": {
        "type": "Point",
        "coordinates": [
          -76.6533228,
          39.4990589
        ]
      },
      "properties": {
        "@id": "node/3088214796",
        "brand": "Dick's Sporting Goods",
        "brand:wikidata": "Q5272601",
        "brand:wikipedia": "en:Dick's Sporting Goods",
        "name": "Dick's Sporting Goods",
        "opening_hours": "09:00-21:00",
        "shop": "sports"
      },
      "id": "node/3088214796"
    },
    {
      "type": "Feature",
      "geometry": {
        "type": "Point",
        "coordinates": [
          -80.0564643,
          40.3438848
        ]
      },
      "properties": {
        "@id": "node/3113295311",
        "brand": "Dick's Sporting Goods",
        "brand:wikidata": "Q5272601",
        "brand:wikipedia": "en:Dick's Sporting Goods",
        "name": "Dick's Sporting Goods",
        "shop": "sports"
      },
      "id": "node/3113295311"
    },
    {
      "type": "Feature",
      "geometry": {
        "type": "Point",
        "coordinates": [
          -79.5964353,
          40.3106187
        ]
      },
      "properties": {
        "@id": "node/3227493499",
        "brand": "Dick's Sporting Goods",
        "brand:wikidata": "Q5272601",
        "brand:wikipedia": "en:Dick's Sporting Goods",
        "name": "Dick's Sporting Goods",
        "shop": "sports"
      },
      "id": "node/3227493499"
    },
    {
      "type": "Feature",
      "geometry": {
        "type": "Point",
        "coordinates": [
          -76.1725005,
          43.0666747
        ]
      },
      "properties": {
        "@id": "node/3281423709",
        "addr:city": "Syracuse",
        "addr:country": "US",
        "addr:housenumber": 10311,
        "addr:postcode": 13204,
        "addr:state": "NY",
        "addr:street": "Destiny USA Drive",
        "brand": "Dick's Sporting Goods",
        "brand:wikidata": "Q5272601",
        "brand:wikipedia": "en:Dick's Sporting Goods",
        "contact:phone": "+1 315 471 7770",
        "contact:website": "http://stores.dickssportinggoods.com/ny/syracuse/1046/",
        "entrance": "yes",
        "name": "Dick's Sporting Goods",
        "opening_hours": "Mo-Sa 09:00-21:30; Su 10:00-19:00",
        "shop": "sports"
      },
      "id": "node/3281423709"
    },
    {
      "type": "Feature",
      "geometry": {
        "type": "Point",
        "coordinates": [
          -75.2863592,
          40.6574285
        ]
      },
      "properties": {
        "@id": "node/3554944378",
        "addr:city": "Easton",
        "addr:housenumber": 4423,
        "addr:postcode": 18045,
        "addr:state": "PA",
        "addr:street": "Birkland Place",
        "brand": "Dick's Sporting Goods",
        "brand:wikidata": "Q5272601",
        "brand:wikipedia": "en:Dick's Sporting Goods",
        "name": "Dick's Sporting Goods",
        "shop": "sports"
      },
      "id": "node/3554944378"
    },
    {
      "type": "Feature",
      "geometry": {
        "type": "Point",
        "coordinates": [
          -76.9241371,
          38.6182018
        ]
      },
      "properties": {
        "@id": "node/3597570100",
        "brand": "Dick's Sporting Goods",
        "brand:wikidata": "Q5272601",
        "brand:wikipedia": "en:Dick's Sporting Goods",
        "name": "Dick's Sporting Goods",
        "shop": "sports"
      },
      "id": "node/3597570100"
    },
    {
      "type": "Feature",
      "geometry": {
        "type": "Point",
        "coordinates": [
          -73.0382485,
          41.2342872
        ]
      },
      "properties": {
        "@id": "node/3641773527",
        "brand": "Dick's Sporting Goods",
        "brand:wikidata": "Q5272601",
        "brand:wikipedia": "en:Dick's Sporting Goods",
        "layer": 2,
        "name": "Dick's Sporting Goods",
        "shop": "sports"
      },
      "id": "node/3641773527"
    },
    {
      "type": "Feature",
      "geometry": {
        "type": "Point",
        "coordinates": [
          -73.1338018,
          40.8642881
        ]
      },
      "properties": {
        "@id": "node/3725120213",
        "brand": "Dick's Sporting Goods",
        "brand:wikidata": "Q5272601",
        "brand:wikipedia": "en:Dick's Sporting Goods",
        "name": "Dick's Sporting Goods",
        "shop": "sports"
      },
      "id": "node/3725120213"
    },
    {
      "type": "Feature",
      "geometry": {
        "type": "Point",
        "coordinates": [
          -77.6294528,
          37.4203326
        ]
      },
      "properties": {
        "@id": "node/3728556105",
        "addr:city": "Midlothian",
        "addr:housenumber": 4931,
        "addr:postcode": 23112,
        "addr:state": "VA",
        "addr:street": "Commonwealth Centre Parkway",
        "brand": "Dick's Sporting Goods",
        "brand:wikidata": "Q5272601",
        "name": "Dick's Sporting Goods",
        "phone": "804-763-3787",
        "shop": "sports"
      },
      "id": "node/3728556105"
    },
    {
      "type": "Feature",
      "geometry": {
        "type": "Point",
        "coordinates": [
          -68.7487358,
          44.829445
        ]
      },
      "properties": {
        "@id": "node/3769884550",
        "brand": "Dick's Sporting Goods",
        "brand:wikidata": "Q5272601",
        "brand:wikipedia": "en:Dick's Sporting Goods",
        "name": "Dick's Sporting Goods",
        "shop": "sports"
      },
      "id": "node/3769884550"
    },
    {
      "type": "Feature",
      "geometry": {
        "type": "Point",
        "coordinates": [
          -77.2960317,
          38.6498312
        ]
      },
      "properties": {
        "@id": "node/3785586528",
        "addr:city": "Woodbridge",
        "addr:housenumber": 13080,
        "addr:postcode": 22192,
        "addr:street": "Worth Avenue",
        "brand": "Dick's Sporting Goods",
        "brand:wikidata": "Q5272601",
        "brand:wikipedia": "en:Dick's Sporting Goods",
        "name": "Dick's Sporting Goods",
        "shop": "sports"
      },
      "id": "node/3785586528"
    },
    {
      "type": "Feature",
      "geometry": {
        "type": "Point",
        "coordinates": [
          -75.8899687,
          42.1047268
        ]
      },
      "properties": {
        "@id": "node/3817284957",
        "brand": "Dick's Sporting Goods",
        "brand:wikidata": "Q5272601",
        "name": "Dick's Sporting Goods",
        "shop": "sports"
      },
      "id": "node/3817284957"
    },
    {
      "type": "Feature",
      "geometry": {
        "type": "Point",
        "coordinates": [
          -72.8699384,
          41.3572443
        ]
      },
      "properties": {
        "@id": "node/4062532852",
        "brand": "Dick's Sporting Goods",
        "brand:wikidata": "Q5272601",
        "brand:wikipedia": "en:Dick's Sporting Goods",
        "name": "Dick's Sporting Goods",
        "shop": "sports"
      },
      "id": "node/4062532852"
    },
    {
      "type": "Feature",
      "geometry": {
        "type": "Point",
        "coordinates": [
          -76.4800453,
          38.2845751
        ]
      },
      "properties": {
        "@id": "node/4223068444",
        "brand": "Dick's Sporting Goods",
        "brand:wikidata": "Q5272601",
        "brand:wikipedia": "en:Dick's Sporting Goods",
        "name": "Dick's Sporting Goods",
        "shop": "sports"
      },
      "id": "node/4223068444"
    },
    {
      "type": "Feature",
      "geometry": {
        "type": "Point",
        "coordinates": [
          -76.346255,
          39.5238024
        ]
      },
      "properties": {
        "@id": "node/4352719886",
        "brand": "Dick's Sporting Goods",
        "brand:wikidata": "Q5272601",
        "brand:wikipedia": "en:Dick's Sporting Goods",
        "name": "Dick's Sporting Goods",
        "shop": "sports"
      },
      "id": "node/4352719886"
    },
    {
      "type": "Feature",
      "geometry": {
        "type": "Point",
        "coordinates": [
          -77.520169,
          38.933567
        ]
      },
      "properties": {
        "@id": "node/4362228287",
        "addr:city": "Arcola",
        "addr:housenumber": 24670,
        "addr:postcode": 20166,
        "addr:state": "VA",
        "addr:street": "Dulles Landing Drive",
        "brand": "Dick's Sporting Goods",
        "brand:wikidata": "Q5272601",
        "brand:wikipedia": "en:Dick's Sporting Goods",
        "name": "Dick's Sporting Goods",
        "shop": "sports"
      },
      "id": "node/4362228287"
    },
    {
      "type": "Feature",
      "geometry": {
        "type": "Point",
        "coordinates": [
          -73.3047302,
          40.7631751
        ]
      },
      "properties": {
        "@id": "node/4545084337",
        "addr:city": "Deer Park",
        "addr:postcode": 11729,
        "addr:state": "NY",
        "addr:street": "The Arches Circle",
        "branch": "Last Call",
        "brand": "Dick's Sporting Goods",
        "brand:wikidata": "Q5272601",
        "brand:wikipedia": "en:Dick's Sporting Goods",
        "name": "Dick's Sporting Goods",
        "opening_hours": "Mo-Th 10:00-20:00, Fr-Sa 10:00-21:00, Su 11:00-19:00",
        "phone": "+1 512 421 2862",
        "shop": "sports",
        "website": "https://www.tangeroutlet.com/deerpark/maps#/location/14273/profile"
      },
      "id": "node/4545084337"
    },
    {
      "type": "Feature",
      "geometry": {
        "type": "Point",
        "coordinates": [
          -78.167093,
          39.167136
        ]
      },
      "properties": {
        "@id": "node/4575399276",
        "addr:city": "Winchester",
        "addr:housenumber": 1675,
        "addr:postcode": 22601,
        "addr:state": "VA",
        "addr:street": "South Pleasant Valley Road",
        "brand": "Dick's Sporting Goods",
        "brand:wikidata": "Q5272601",
        "brand:wikipedia": "en:Dick's Sporting Goods",
        "name": "Dick's Sporting Goods",
        "opening_hours": "09:00-21:30",
        "shop": "sports"
      },
      "id": "node/4575399276"
    },
    {
      "type": "Feature",
      "geometry": {
        "type": "Point",
        "coordinates": [
          -79.5057366,
          40.2976342
        ]
      },
      "properties": {
        "@id": "node/4712127575",
        "brand": "Dick's Sporting Goods",
        "brand:wikidata": "Q5272601",
        "brand:wikipedia": "en:Dick's Sporting Goods",
        "name": "Dick's Sporting Goods",
        "shop": "sports"
      },
      "id": "node/4712127575"
    },
    {
      "type": "Feature",
      "geometry": {
        "type": "Point",
        "coordinates": [
          -75.0369541,
          39.4315619
        ]
      },
      "properties": {
        "@id": "node/4738896950",
        "brand": "Dick's Sporting Goods",
        "brand:wikidata": "Q5272601",
        "brand:wikipedia": "en:Dick's Sporting Goods",
        "name": "Dick's Sporting Goods",
        "shop": "sports"
      },
      "id": "node/4738896950"
    },
    {
      "type": "Feature",
      "geometry": {
        "type": "Point",
        "coordinates": [
          -78.8451487,
          38.4284512
        ]
      },
      "properties": {
        "@id": "node/4746407312",
        "brand": "Dick's Sporting Goods",
        "brand:wikidata": "Q5272601",
        "brand:wikipedia": "en:Dick's Sporting Goods",
        "name": "Dick's Sporting Goods",
        "shop": "sports"
      },
      "id": "node/4746407312"
    },
    {
      "type": "Feature",
      "geometry": {
        "type": "Point",
        "coordinates": [
          -72.810106,
          41.5512598
        ]
      },
      "properties": {
        "@id": "node/4965672541",
        "brand": "Dick's Sporting Goods",
        "brand:wikidata": "Q5272601",
        "brand:wikipedia": "en:Dick's Sporting Goods",
        "level": 2,
        "name": "Dick's Sporting Goods",
        "shop": "sports"
      },
      "id": "node/4965672541"
    },
    {
      "type": "Feature",
      "geometry": {
        "type": "Point",
        "coordinates": [
          -74.6795004,
          40.3059646
        ]
      },
      "properties": {
        "@id": "node/5040124798",
        "brand": "Dick's Sporting Goods",
        "brand:wikidata": "Q5272601",
        "brand:wikipedia": "en:Dick's Sporting Goods",
        "name": "Dick's Sporting Goods",
        "shop": "sports"
      },
      "id": "node/5040124798"
    },
    {
      "type": "Feature",
      "geometry": {
        "type": "Point",
        "coordinates": [
          -75.6559308,
          41.458504
        ]
      },
      "properties": {
        "@id": "node/5049798447",
        "brand": "Dick's Sporting Goods",
        "brand:wikidata": "Q5272601",
        "brand:wikipedia": "en:Dick's Sporting Goods",
        "name": "Dick's Sporting Goods",
        "shop": "sports"
      },
      "id": "node/5049798447"
    },
    {
      "type": "Feature",
      "geometry": {
        "type": "Point",
        "coordinates": [
          -75.2459385,
          40.2358321
        ]
      },
      "properties": {
        "@id": "node/5059445263",
        "addr:city": "North Wales",
        "addr:housenumber": 113,
        "addr:postcode": 19454,
        "addr:state": "PA",
        "addr:street": "Montgomery Mall",
        "brand": "Dick's Sporting Goods",
        "brand:wikidata": "Q5272601",
        "brand:wikipedia": "en:Dick's Sporting Goods",
        "name": "Dick's Sporting Goods",
        "shop": "sports"
      },
      "id": "node/5059445263"
    },
    {
      "type": "Feature",
      "geometry": {
        "type": "Point",
        "coordinates": [
          -75.1206286,
          40.1422809
        ]
      },
      "properties": {
        "@id": "node/5180773537",
        "addr:city": "Willow Grove",
        "addr:housenumber": 2510,
        "addr:postcode": 19090,
        "addr:state": "PA",
        "addr:street": "West Moreland Road",
        "brand": "Dick's Sporting Goods",
        "brand:wikidata": "Q5272601",
        "brand:wikipedia": "en:Dick's Sporting Goods",
        "name": "Dick's Sporting Goods",
        "shop": "sports"
      },
      "id": "node/5180773537"
    },
    {
      "type": "Feature",
      "geometry": {
        "type": "Point",
        "coordinates": [
          -75.3140239,
          43.0825247
        ]
      },
      "properties": {
        "@id": "node/5191379200",
        "brand": "Dick's Sporting Goods",
        "brand:wikidata": "Q5272601",
        "brand:wikipedia": "en:Dick's Sporting Goods",
        "name": "Dick's Sporting Goods",
        "shop": "sports"
      },
      "id": "node/5191379200"
    },
    {
      "type": "Feature",
      "geometry": {
        "type": "Point",
        "coordinates": [
          -76.9341244,
          40.2220213
        ]
      },
      "properties": {
        "@id": "node/5191735700",
        "brand": "Dick's Sporting Goods",
        "brand:wikidata": "Q5272601",
        "brand:wikipedia": "en:Dick's Sporting Goods",
        "name": "Dick's Sporting Goods",
        "shop": "sports"
      },
      "id": "node/5191735700"
    },
    {
      "type": "Feature",
      "geometry": {
        "type": "Point",
        "coordinates": [
          -74.1676063,
          40.5864406
        ]
      },
      "properties": {
        "@id": "node/5240452321",
        "brand": "Dick's Sporting Goods",
        "brand:wikidata": "Q5272601",
        "brand:wikipedia": "en:Dick's Sporting Goods",
        "name": "Dick's Sporting Goods",
        "shop": "sports",
        "wheelchair": "yes"
      },
      "id": "node/5240452321"
    },
    {
      "type": "Feature",
      "geometry": {
        "type": "Point",
        "coordinates": [
          -73.1112091,
          44.4429017
        ]
      },
      "properties": {
        "@id": "node/5276551311",
        "brand": "Dick's Sporting Goods",
        "brand:wikidata": "Q5272601",
        "brand:wikipedia": "en:Dick's Sporting Goods",
        "name": "Dick's Sporting Goods",
        "shop": "sports"
      },
      "id": "node/5276551311"
    },
    {
      "type": "Feature",
      "geometry": {
        "type": "Point",
        "coordinates": [
          -73.4103316,
          40.7988388
        ]
      },
      "properties": {
        "@id": "node/5388234507",
        "brand": "Dick's Sporting Goods",
        "brand:wikidata": "Q5272601",
        "brand:wikipedia": "en:Dick's Sporting Goods",
        "name": "Dick's Sporting Goods",
        "shop": "sports",
        "wheelchair": "yes"
      },
      "id": "node/5388234507"
    },
    {
      "type": "Feature",
      "geometry": {
        "type": "Point",
        "coordinates": [
          -73.8561927,
          40.9660031
        ]
      },
      "properties": {
        "@id": "node/5451253521",
        "addr:housenumber": 45,
        "addr:street": "Fitzgerald Street",
        "brand": "Dick's Sporting Goods",
        "brand:wikidata": "Q5272601",
        "brand:wikipedia": "en:Dick's Sporting Goods",
        "name": "Dick's Sporting Goods",
        "opening_hours": "Mo-Su 09:00-21:30",
        "phone": 9149640580,
        "shop": "sports"
      },
      "id": "node/5451253521"
    },
    {
      "type": "Feature",
      "geometry": {
        "type": "Point",
        "coordinates": [
          -73.2065863,
          42.464864
        ]
      },
      "properties": {
        "@id": "node/5486906525",
        "brand": "Dick's Sporting Goods",
        "brand:wikidata": "Q5272601",
        "brand:wikipedia": "en:Dick's Sporting Goods",
        "name": "Dick's Sporting Goods",
        "shop": "sports"
      },
      "id": "node/5486906525"
    },
    {
      "type": "Feature",
      "geometry": {
        "type": "Point",
        "coordinates": [
          -79.7934904,
          40.5726336
        ]
      },
      "properties": {
        "@id": "node/5487812478",
        "addr:city": "Tarentum",
        "addr:housenumber": 329,
        "addr:postcode": 15084,
        "addr:state": "PA",
        "addr:street": "Pittsburgh Mills Circle",
        "brand": "Dick's Sporting Goods",
        "brand:wikidata": "Q5272601",
        "brand:wikipedia": "en:Dick's Sporting Goods",
        "name": "Dick's Sporting Goods",
        "shop": "sports"
      },
      "id": "node/5487812478"
    },
    {
      "type": "Feature",
      "geometry": {
        "type": "Point",
        "coordinates": [
          -76.0668509,
          43.0452098
        ]
      },
      "properties": {
        "@id": "node/5493744137",
        "addr:housenumber": 3469,
        "addr:street": "Erie Boulevard East",
        "brand": "Dick's Sporting Goods",
        "brand:wikidata": "Q5272601",
        "brand:wikipedia": "en:Dick's Sporting Goods",
        "name": "Dick's Sporting Goods",
        "opening_hours": "Mo-Sa 09:00-21:30; Su 10:00-19:00",
        "shop": "sports"
      },
      "id": "node/5493744137"
    },
    {
      "type": "Feature",
      "geometry": {
        "type": "Point",
        "coordinates": [
          -76.3113517,
          40.0670659
        ]
      },
      "properties": {
        "@id": "node/5567350279",
        "brand": "Dick's Sporting Goods",
        "brand:wikidata": "Q5272601",
        "brand:wikipedia": "en:Dick's Sporting Goods",
        "name": "Dick's Sporting Goods",
        "shop": "sports"
      },
      "id": "node/5567350279"
    },
    {
      "type": "Feature",
      "geometry": {
        "type": "Point",
        "coordinates": [
          -71.3867439,
          42.2980441
        ]
      },
      "properties": {
        "@id": "node/5607583383",
        "addr:city": "Natick",
        "addr:housenumber": 1336,
        "addr:postcode": "01760",
        "addr:state": "MA",
        "addr:street": "Worcester Street",
        "brand": "Dick's Sporting Goods",
        "brand:wikidata": "Q5272601",
        "brand:wikipedia": "en:Dick's Sporting Goods",
        "name": "Dick's Sporting Goods",
        "opening_hours": "Mo-Su 09:00-21:00",
        "shop": "sports"
      },
      "id": "node/5607583383"
    },
    {
      "type": "Feature",
      "geometry": {
        "type": "Point",
        "coordinates": [
          -75.4909529,
          40.6473726
        ]
      },
      "properties": {
        "@id": "node/5800087428",
        "brand": "Dick's Sporting Goods",
        "brand:wikidata": "Q5272601",
        "brand:wikipedia": "en:Dick's Sporting Goods",
        "name": "Dick's Sporting Goods",
        "shop": "sports"
      },
      "id": "node/5800087428"
    },
    {
      "type": "Feature",
      "geometry": {
        "type": "Point",
        "coordinates": [
          -79.7977704,
          40.4295278
        ]
      },
      "properties": {
        "@id": "node/5862524911",
        "addr:city": "Monroeville",
        "addr:housenumber": 501,
        "addr:postcode": 15146,
        "addr:state": "PA",
        "addr:street": "Monroeville Mall",
        "brand": "Dick's Sporting Goods",
        "brand:wikidata": "Q5272601",
        "brand:wikipedia": "en:Dick's Sporting Goods",
        "name": "Dick's Sporting Goods",
        "opening_hours": "Mo-Sa 09:00-21:30, Su 10:00-18:00",
        "phone": "+1-412-843-0024",
        "shop": "sports"
      },
      "id": "node/5862524911"
    },
    {
      "type": "Feature",
      "geometry": {
        "type": "Point",
        "coordinates": [
          -77.9659686,
          38.4833168
        ]
      },
      "properties": {
        "@id": "node/5939556406",
        "addr:city": "Culpeper",
        "addr:housenumber": 15359,
        "addr:postcode": 22701,
        "addr:state": "VA",
        "addr:street": "Montannus Drive",
        "brand": "Dick's Sporting Goods",
        "brand:wikidata": "Q5272601",
        "brand:wikipedia": "en:Dick's Sporting Goods",
        "name": "Dick's Sporting Goods",
        "shop": "sports"
      },
      "id": "node/5939556406"
    },
    {
      "type": "Feature",
      "geometry": {
        "type": "Point",
        "coordinates": [
          -73.7268933,
          40.6625597
        ]
      },
      "properties": {
        "@id": "node/5973451196",
        "addr:housenumber": 3,
        "addr:street": "Green Acres Road South",
        "brand": "Dick's Sporting Goods",
        "brand:wikidata": "Q5272601",
        "brand:wikipedia": "en:Dick's Sporting Goods",
        "name": "Dick's Sporting Goods",
        "shop": "sports"
      },
      "id": "node/5973451196"
    },
    {
      "type": "Feature",
      "geometry": {
        "type": "Point",
        "coordinates": [
          -75.5405788,
          39.8313385
        ]
      },
      "properties": {
        "@id": "node/6362205282",
        "brand": "Dick's Sporting Goods",
        "brand:wikidata": "Q5272601",
        "brand:wikipedia": "en:Dick's Sporting Goods",
        "name": "Dick's Sporting Goods",
        "shop": "sports"
      },
      "id": "node/6362205282"
    },
    {
      "type": "Feature",
      "geometry": {
        "type": "Point",
        "coordinates": [
          -79.9620704,
          37.3072637
        ]
      },
      "properties": {
        "@id": "node/6399810385",
        "brand": "Dick's Sporting Goods",
        "brand:wikidata": "Q5272601",
        "brand:wikipedia": "en:Dick's Sporting Goods",
        "name": "Dick's Sporting Goods",
        "shop": "sports"
      },
      "id": "node/6399810385"
    },
    {
      "type": "Feature",
      "geometry": {
        "type": "Point",
        "coordinates": [
          -77.1739835,
          38.7731697
        ]
      },
      "properties": {
        "@id": "node/6422017285",
        "brand": "Dick's Sporting Goods",
        "brand:wikidata": "Q5272601",
        "brand:wikipedia": "en:Dick's Sporting Goods",
        "name": "Dick's Sporting Goods",
        "shop": "sports"
      },
      "id": "node/6422017285"
    },
    {
      "type": "Feature",
      "geometry": {
        "type": "Point",
        "coordinates": [
          -75.5394234,
          39.1929113
        ]
      },
      "properties": {
        "@id": "node/6476908404",
        "brand": "Dick's Sporting Goods",
        "brand:wikidata": "Q5272601",
        "brand:wikipedia": "en:Dick's Sporting Goods",
        "name": "Dick's Sporting Goods",
        "shop": "sports"
      },
      "id": "node/6476908404"
    },
    {
      "type": "Feature",
      "geometry": {
        "type": "Point",
        "coordinates": [
          -77.4985118,
          37.5811277
        ]
      },
      "properties": {
        "@id": "node/6522609508",
        "brand": "Dick's Sporting Goods",
        "brand:wikidata": "Q5272601",
        "brand:wikipedia": "en:Dick's Sporting Goods",
        "name": "Dick's Sporting Goods",
        "shop": "sports"
      },
      "id": "node/6522609508"
    },
    {
      "type": "Feature",
      "geometry": {
        "type": "Point",
        "coordinates": [
          -74.9674247,
          40.0855698
        ]
      },
      "properties": {
        "@id": "node/6592960555",
        "brand": "Dick's Sporting Goods",
        "brand:wikidata": "Q5272601",
        "brand:wikipedia": "en:Dick's Sporting Goods",
        "name": "Dick's Sporting Goods",
        "shop": "sports"
      },
      "id": "node/6592960555"
    },
    {
      "type": "Feature",
      "geometry": {
        "type": "Point",
        "coordinates": [
          -77.0546743,
          39.0352395
        ]
      },
      "properties": {
        "@id": "node/6634695172",
        "brand": "Dick's Sporting Goods",
        "brand:wikidata": "Q5272601",
        "brand:wikipedia": "en:Dick's Sporting Goods",
        "level": 0,
        "name": "Dick's Sporting Goods",
        "opening_hours": "Mo-Sa 09:00-21:00; Su 10:00-19:00",
        "shop": "sports"
      },
      "id": "node/6634695172"
    },
    {
      "type": "Feature",
      "geometry": {
        "type": "Point",
        "coordinates": [
          -77.464525,
          37.6705494
        ]
      },
      "properties": {
        "@id": "node/6682990966",
        "addr:housenumber": 9940,
        "addr:postcode": 23059,
        "addr:street": "Brook Road",
        "brand": "Dick's Sporting Goods",
        "brand:wikidata": "Q5272601",
        "brand:wikipedia": "en:Dick's Sporting Goods",
        "name": "Dick's Sporting Goods",
        "opening_hours": "Mo-Sa 09:00-21:30; Su 10:00-19:00",
        "shop": "sports"
      },
      "id": "node/6682990966"
    },
    {
      "type": "Feature",
      "geometry": {
        "type": "Point",
        "coordinates": [
          -76.4900294,
          42.4820786
        ]
      },
      "properties": {
        "@id": "node/6760869740",
        "brand": "Dick's Sporting Goods",
        "brand:wikidata": "Q5272601",
        "brand:wikipedia": "en:Dick's Sporting Goods",
        "name": "Dick's Sporting Goods",
        "shop": "sports"
      },
      "id": "node/6760869740"
    },
    {
      "type": "Feature",
      "geometry": {
        "type": "Point",
        "coordinates": [
          -76.9828313,
          39.5800493
        ]
      },
      "properties": {
        "@id": "node/6766626815",
        "brand": "Dick's Sporting Goods",
        "brand:wikidata": "Q5272601",
        "brand:wikipedia": "en:Dick's Sporting Goods",
        "name": "Dick's Sporting Goods",
        "shop": "sports"
      },
      "id": "node/6766626815"
    },
    {
      "type": "Feature",
      "geometry": {
        "type": "Point",
        "coordinates": [
          -74.285259,
          39.7091747
        ]
      },
      "properties": {
        "@id": "node/6824452500",
        "brand": "Dick's Sporting Goods",
        "brand:wikidata": "Q5272601",
        "brand:wikipedia": "en:Dick's Sporting Goods",
        "name": "Dick's Sporting Goods",
        "shop": "sports",
        "wheelchair": "yes"
      },
      "id": "node/6824452500"
    },
    {
      "type": "Feature",
      "geometry": {
        "type": "Point",
        "coordinates": [
          -71.1672881,
          42.2573098
        ]
      },
      "properties": {
        "@id": "node/6925171948",
        "brand": "Dick's Sporting Goods",
        "brand:wikidata": "Q5272601",
        "brand:wikipedia": "en:Dick's Sporting Goods",
        "name": "Dick's Sporting Goods",
        "shop": "sports"
      },
      "id": "node/6925171948"
    },
    {
      "type": "Feature",
      "geometry": {
        "type": "Point",
        "coordinates": [
          -77.5130356,
          38.2927314
        ]
      },
      "properties": {
        "@id": "node/7115039793",
        "brand": "Dick's Sporting Goods",
        "brand:wikidata": "Q5272601",
        "brand:wikipedia": "en:Dick's Sporting Goods",
        "name": "Dick's Sporting Goods",
        "shop": "sports"
      },
      "id": "node/7115039793"
    },
    {
      "type": "Feature",
      "geometry": {
        "type": "Point",
        "coordinates": [
          -73.8076741,
          41.3291853
        ]
      },
      "properties": {
        "@id": "node/7272562031",
        "brand": "Dick's Sporting Goods",
        "brand:wikidata": "Q5272601",
        "brand:wikipedia": "en:Dick's Sporting Goods",
        "name": "Dick's Sporting Goods",
        "shop": "sports"
      },
      "id": "node/7272562031"
    },
    {
      "type": "Feature",
      "geometry": {
        "type": "Point",
        "coordinates": [
          -80.1043825,
          42.0699156
        ]
      },
      "properties": {
        "@id": "node/7624323989",
        "addr:city": "Erie",
        "addr:housenumber": 2088,
        "addr:postcode": 16565,
        "addr:state": "PA",
        "addr:street": "Interchange Road",
        "addr:unit": 300,
        "brand": "Dick's Sporting Goods",
        "brand:wikidata": "Q5272601",
        "brand:wikipedia": "en:Dick's Sporting Goods",
        "name": "Dick's Sporting Goods",
        "shop": "sports"
      },
      "id": "node/7624323989"
    },
    {
      "type": "Feature",
      "geometry": {
        "type": "Point",
        "coordinates": [
          -77.1277007,
          38.852121
        ]
      },
      "properties": {
        "@id": "node/7823542472",
        "addr:city": "Bailey's Crossroads",
        "addr:housenumber": 5716,
        "addr:postcode": 22041,
        "addr:state": "VA",
        "addr:street": "Columbia Pike",
        "brand": "Dick's Sporting Goods",
        "brand:wikidata": "Q5272601",
        "brand:wikipedia": "en:Dick's Sporting Goods",
        "name": "Dick's Sporting Goods",
        "shop": "sports"
      },
      "id": "node/7823542472"
    },
    {
      "type": "Feature",
      "geometry": {
        "type": "Point",
        "coordinates": [
          -73.4801423,
          41.3793479
        ]
      },
      "properties": {
        "@id": "node/7945889927",
        "brand": "Dick's Sporting Goods",
        "brand:wikidata": "Q5272601",
        "brand:wikipedia": "en:Dick's Sporting Goods",
        "name": "Dick's Sporting Goods",
        "shop": "sports"
      },
      "id": "node/7945889927"
    },
    {
      "type": "Feature",
      "geometry": {
        "type": "Point",
        "coordinates": [
          -79.1766091,
          37.3665658
        ]
      },
      "properties": {
        "@id": "node/8237929141",
        "addr:housenumber": 3385,
        "addr:street": "Candlers Mountain Road",
        "addr:unit": "J300",
        "brand": "Dick's Sporting Goods",
        "brand:wikidata": "Q5272601",
        "brand:wikipedia": "en:Dick's Sporting Goods",
        "name": "Dick's Sporting Goods",
        "opening_hours": "Mo-Sa 09:00-21:00; Su 10:00-19:00",
        "phone": "+1 434 200 9081",
        "shop": "sports",
        "website": "https://stores.dickssportinggoods.com/va/lynchburg/1503/"
      },
      "id": "node/8237929141"
    },
    {
      "type": "Feature",
      "geometry": {
        "type": "Point",
        "coordinates": [
          -73.9571915,
          41.0968369
        ]
      },
      "properties": {
        "@id": "node/8331873735",
        "brand": "Dick's Sporting Goods",
        "brand:wikidata": "Q5272601",
        "brand:wikipedia": "en:Dick's Sporting Goods",
        "level": "2-3",
        "name": "Dick's Sporting Goods",
        "shop": "sports"
      },
      "id": "node/8331873735"
    },
    {
      "type": "Feature",
      "geometry": {
        "type": "Point",
        "coordinates": [
          -75.6522096,
          39.6743038
        ]
      },
      "properties": {
        "@id": "node/8476144180",
        "brand": "Dick's Sporting Goods",
        "brand:wikidata": "Q5272601",
        "brand:wikipedia": "en:Dick's Sporting Goods",
        "name": "Dick's Sporting Goods",
        "shop": "sports"
      },
      "id": "node/8476144180"
    },
    {
      "type": "Feature",
      "geometry": {
        "type": "Point",
        "coordinates": [
          -77.4435433,
          43.0306899
        ]
      },
      "properties": {
        "@id": "node/8584250644",
        "addr:city": "Victor",
        "addr:housenumber": 200,
        "addr:postcode": 14564,
        "addr:state": "NY",
        "addr:street": "Eastview Mall Drive",
        "air_conditioning": "yes",
        "branch": "House of Sport",
        "brand": "Dick's Sporting Goods",
        "brand:wikidata": "Q5272601",
        "brand:wikipedia": "en:Dick's Sporting Goods",
        "description": "It's more than a store. It's an experience. From baseball to yoga and wrestling to lacrosse, basketball, running, and more there's merchandise and hands on experiences plus a full outdoor sports court and events.",
        "name": "Dick's Sporting Goods",
        "note": "New Concept Store.  Not same as Dick's Sporting Goods.  This is a new store that also features Dick's Sporting Goods but is more premium and under a different name.  First of its kind.",
        "opening_hours:covid19": "open",
        "operator": "Dick's Sporting Goods",
        "phone": "+1-585-282-0000",
        "shop": "sports",
        "source": "https://www.dickssportinggoods.com/s/houseofsport",
        "sport": "multi",
        "start_date": "03-20-2021",
        "stroller": "yes",
        "tourism": "attraction",
        "website": "https://www.dickssportinggoods.com/s/houseofsport",
        "wheelchair": "yes"
      },
      "id": "node/8584250644"
    },
    {
      "type": "Feature",
      "geometry": {
        "type": "Point",
        "coordinates": [
          -77.3605364,
          38.8632004
        ]
      },
      "properties": {
        "@id": "node/9118222722",
        "brand": "Dick's Sporting Goods",
        "brand:wikidata": "Q5272601",
        "brand:wikipedia": "en:Dick's Sporting Goods",
        "name": "Dick's Sporting Goods",
        "shop": "sports"
      },
      "id": "node/9118222722"
    },
    {
      "type": "Feature",
      "geometry": {
        "type": "Point",
        "coordinates": [
          -71.052415,
          42.0966357
        ]
      },
      "properties": {
        "@id": "node/9172505093",
        "brand": "Dick's Sporting Goods",
        "brand:wikidata": "Q5272601",
        "brand:wikipedia": "en:Dick's Sporting Goods",
        "name": "Dick's Sporting Goods",
        "shop": "sports"
      },
      "id": "node/9172505093"
    },
    {
      "type": "Feature",
      "geometry": {
        "type": "Point",
        "coordinates": [
          -78.7866407,
          42.7920049
        ]
      },
      "properties": {
        "@id": "node/9180216297",
        "addr:city": "Orchard Park",
        "addr:housenumber": 3434,
        "addr:postcode": 14127,
        "addr:state": "NY",
        "addr:street": "Amelia Drive",
        "brand": "Dick's Sporting Goods",
        "brand:wikidata": "Q5272601",
        "brand:wikipedia": "en:Dick's Sporting Goods",
        "name": "Dick's Sporting Goods",
        "shop": "sports"
      },
      "id": "node/9180216297"
    },
    {
      "type": "Feature",
      "geometry": {
        "type": "Point",
        "coordinates": [
          -78.8188351,
          42.9868949
        ]
      },
      "properties": {
        "@id": "node/9181240149",
        "addr:city": "Amherst",
        "addr:housenumber": 640,
        "addr:postcode": 14226,
        "addr:state": "NY",
        "addr:street": "Alberta Drive",
        "brand": "Dick's Sporting Goods",
        "brand:wikidata": "Q5272601",
        "brand:wikipedia": "en:Dick's Sporting Goods",
        "name": "Dick's Sporting Goods",
        "shop": "sports"
      },
      "id": "node/9181240149"
    },
    {
      "type": "Feature",
      "geometry": {
        "type": "Point",
        "coordinates": [
          -72.1519598,
          41.3830804
        ]
      },
      "properties": {
        "@id": "node/9432201546",
        "addr:city": "Waterford",
        "addr:housenumber": 915,
        "addr:postcode": "06385",
        "addr:state": "CT",
        "addr:street": "Hartford Turnpike",
        "addr:unit": "Suite A1",
        "brand": "Dick's Sporting Goods",
        "brand:wikidata": "Q5272601",
        "brand:wikipedia": "en:Dick's Sporting Goods",
        "name": "Dick's Sporting Goods",
        "shop": "sports"
      },
      "id": "node/9432201546"
    },
    {
      "type": "Feature",
      "geometry": {
        "type": "Point",
        "coordinates": [
          -72.7022877,
          40.9228983
        ]
      },
      "properties": {
        "@id": "node/9447907062",
        "addr:city": "Riverhead",
        "addr:housenumber": 1779,
        "addr:postcode": 11901,
        "addr:state": "NY",
        "addr:street": "Old Country Road",
        "brand": "Dick's Sporting Goods",
        "brand:wikidata": "Q5272601",
        "brand:wikipedia": "en:Dick's Sporting Goods",
        "name": "Dick's Sporting Goods",
        "shop": "sports"
      },
      "id": "node/9447907062"
    },
    {
      "type": "Feature",
      "geometry": {
        "type": "Point",
        "coordinates": [
          -75.9530578,
          43.9792734
        ]
      },
      "properties": {
        "@id": "node/9517862513",
        "brand": "Dick's Sporting Goods",
        "brand:wikidata": "Q5272601",
        "brand:wikipedia": "en:Dick's Sporting Goods",
        "name": "Dick's Sporting Goods",
        "shop": "sports"
      },
      "id": "node/9517862513"
    },
    {
      "type": "Feature",
      "geometry": {
        "type": "Point",
        "coordinates": [
          -70.8022778,
          43.0936989
        ]
      },
      "properties": {
        "@id": "node/9528303632",
        "addr:city": "Newington",
        "addr:housenumber": 45,
        "addr:postcode": "03801",
        "addr:state": "NH",
        "addr:street": "Gosling Road",
        "brand": "Dick's Sporting Goods",
        "brand:wikidata": "Q5272601",
        "brand:wikipedia": "en:Dick's Sporting Goods",
        "name": "Dick's Sporting Goods",
        "shop": "sports"
      },
      "id": "node/9528303632"
    },
    {
      "type": "Feature",
      "geometry": {
        "type": "Point",
        "coordinates": [
          -72.8400712,
          41.6734365
        ]
      },
      "properties": {
        "@id": "node/9684104086",
        "brand": "Dick's Sporting Goods",
        "brand:wikidata": "Q5272601",
        "name": "Dick's Sporting Goods",
        "shop": "sports"
      },
      "id": "node/9684104086"
    },
    {
      "type": "Feature",
      "geometry": {
        "type": "Point",
        "coordinates": [
          -71.7778926,
          42.1956754
        ]
      },
      "properties": {
        "@id": "node/9885936506",
        "brand": "Dick's Sporting Goods",
        "brand:wikidata": "Q5272601",
        "name": "Dick's Sporting Goods",
        "shop": "sports"
      },
      "id": "node/9885936506"
    },
    {
      "type": "Feature",
      "geometry": {
        "type": "Point",
        "coordinates": [
          -71.2317529,
          42.7696505
        ]
      },
      "properties": {
        "@id": "node/10172769349",
        "brand": "Dick's Sporting Goods",
        "brand:wikidata": "Q5272601",
        "name": "Dick's Sporting Goods",
        "shop": "sports"
      },
      "id": "node/10172769349"
    },
    {
      "type": "Feature",
      "geometry": {
        "type": "Point",
        "coordinates": [
          -72.9707695,
          43.5852776
        ]
      },
      "properties": {
        "@id": "node/10236398133",
        "brand": "Dick's Sporting Goods",
        "brand:wikidata": "Q5272601",
        "name": "Dick's Sporting Goods",
        "shop": "sports"
      },
      "id": "node/10236398133"
    },
    {
      "type": "Feature",
      "properties": {
        "@id": "node/318783163",
        "brand": "Dick's Sporting Goods",
        "city": "",
        "revenue": " $32,620,000 ",
        "name": " Store Number: 344 "
      },
      "geometry": {
        "type": "Point",
        "coordinates": [
          -75.102563,
          39.8300674
        ]
      }
    },
    {
      "type": "Feature",
      "properties": {
        "@id": "node/642864150",
        "brand": "Dick's Sporting Goods",
        "city": "",
        "revenue": " $26,320,000 ",
        "name": " Store Number: 328 "
      },
      "geometry": {
        "type": "Point",
        "coordinates": [
          -74.6295804,
          39.4508931
        ]
      }
    },
    {
      "type": "Feature",
      "properties": {
        "@id": "node/683681482",
        "brand": "Dick's Sporting Goods",
        "city": "",
        "revenue": " $51,900,000 ",
        "name": " Store Number: 176 "
      },
      "geometry": {
        "type": "Point",
        "coordinates": [
          -74.8646357,
          40.1854708
        ]
      }
    },
    {
      "type": "Feature",
      "properties": {
        "@id": "node/876264870",
        "brand": "Dick's Sporting Goods",
        "city": "",
        "revenue": " $68,350,000 ",
        "name": " Store Number: 167 "
      },
      "geometry": {
        "type": "Point",
        "coordinates": [
          -71.7704818,
          42.2930028
        ]
      }
    },
    {
      "type": "Feature",
      "properties": {
        "@id": "node/1554648188",
        "brand": "Dick's Sporting Goods",
        "city": "",
        "revenue": " $62,760,000 ",
        "name": " Store Number: 12 "
      },
      "geometry": {
        "type": "Point",
        "coordinates": [
          -76.805573,
          40.3120026
        ]
      }
    },
    {
      "type": "Feature",
      "properties": {
        "@id": "node/1608145641",
        "brand": "Dick's Sporting Goods",
        "city": "Webster",
        "revenue": " $3,800,000 ",
        "name": " Store Number: 46 "
      },
      "geometry": {
        "type": "Point",
        "coordinates": [
          -77.4492073,
          43.211336
        ]
      }
    },
    {
      "type": "Feature",
      "properties": {
        "@id": "node/1647278259",
        "brand": "Dick's Sporting Goods",
        "city": "",
        "revenue": " $29,900,000 ",
        "name": " Store Number: 299 "
      },
      "geometry": {
        "type": "Point",
        "coordinates": [
          -72.5760025,
          41.9951575
        ]
      }
    },
    {
      "type": "Feature",
      "properties": {
        "@id": "node/1671352458",
        "brand": "Dick's Sporting Goods",
        "city": "",
        "revenue": " $12,490,000 ",
        "name": " Store Number: 207 "
      },
      "geometry": {
        "type": "Point",
        "coordinates": [
          -71.7147694,
          42.5249707
        ]
      }
    },
    {
      "type": "Feature",
      "properties": {
        "@id": "node/1847617290",
        "brand": "Dick's Sporting Goods",
        "city": "East Hanover",
        "revenue": " $1,140,000 ",
        "name": " Store Number: 21 "
      },
      "geometry": {
        "type": "Point",
        "coordinates": [
          -74.3722521,
          40.8093808
        ]
      }
    },
    {
      "type": "Feature",
      "properties": {
        "@id": "node/2104415957",
        "brand": "Dick's Sporting Goods",
        "city": "East Brunswick",
        "revenue": " $68,130,000 ",
        "name": " Store Number: 396 "
      },
      "geometry": {
        "type": "Point",
        "coordinates": [
          -74.4018263,
          40.4555146
        ]
      }
    },
    {
      "type": "Feature",
      "properties": {
        "@id": "node/2195333064",
        "brand": "Dick's Sporting Goods",
        "city": "Monroeville",
        "revenue": " $18,930,000 ",
        "name": " Store Number: 187 "
      },
      "geometry": {
        "type": "Point",
        "coordinates": [
          -79.7966674,
          40.4269647
        ]
      }
    },
    {
      "type": "Feature",
      "properties": {
        "@id": "node/2304260971",
        "brand": "Dick's Sporting Goods",
        "city": "",
        "revenue": " $41,770,000 ",
        "name": " Store Number: 419 "
      },
      "geometry": {
        "type": "Point",
        "coordinates": [
          -77.517769,
          38.7877927
        ]
      }
    },
    {
      "type": "Feature",
      "properties": {
        "@id": "node/2321176768",
        "brand": "Dick's Sporting Goods",
        "city": "Leesburg",
        "revenue": " $64,500,000 ",
        "name": " Store Number: 102 "
      },
      "geometry": {
        "type": "Point",
        "coordinates": [
          -77.5328517,
          39.1131625
        ]
      }
    },
    {
      "type": "Feature",
      "properties": {
        "@id": "node/2417264444",
        "brand": "Dick's Sporting Goods",
        "city": "",
        "revenue": " $28,050,000 ",
        "name": " Store Number: 468 "
      },
      "geometry": {
        "type": "Point",
        "coordinates": [
          -71.5169239,
          41.8748983
        ]
      }
    },
    {
      "type": "Feature",
      "properties": {
        "@id": "node/2421164820",
        "brand": "Dick's Sporting Goods",
        "city": "York",
        "revenue": " $23,340,000 ",
        "name": " Store Number: 404 "
      },
      "geometry": {
        "type": "Point",
        "coordinates": [
          -76.6674744,
          39.9843596
        ]
      }
    },
    {
      "type": "Feature",
      "properties": {
        "@id": "node/2508538606",
        "brand": "Dick's Sporting Goods",
        "city": "",
        "revenue": " $14,340,000 ",
        "name": " Store Number: 308 "
      },
      "geometry": {
        "type": "Point",
        "coordinates": [
          -75.0471475,
          42.4471171
        ]
      }
    },
    {
      "type": "Feature",
      "properties": {
        "@id": "node/2630346884",
        "brand": "Dick's Sporting Goods",
        "city": "Sterling",
        "revenue": " $14,920,000 ",
        "name": " Store Number: 134 "
      },
      "geometry": {
        "type": "Point",
        "coordinates": [
          -77.4223626,
          39.032016
        ]
      }
    },
    {
      "type": "Feature",
      "properties": {
        "@id": "node/2635588838",
        "brand": "Dick's Sporting Goods",
        "city": "",
        "revenue": " $33,510,000 ",
        "name": " Store Number: 456 "
      },
      "geometry": {
        "type": "Point",
        "coordinates": [
          -80.3133093,
          40.675382
        ]
      }
    },
    {
      "type": "Feature",
      "properties": {
        "@id": "node/2674320213",
        "brand": "Dick's Sporting Goods",
        "city": "",
        "revenue": " $12,890,000 ",
        "name": " Store Number: 25 "
      },
      "geometry": {
        "type": "Point",
        "coordinates": [
          -75.6796783,
          40.0164033
        ]
      }
    },
    {
      "type": "Feature",
      "properties": {
        "@id": "node/2892672769",
        "brand": "Dick's Sporting Goods",
        "city": "",
        "revenue": " $14,200,000 ",
        "name": " Store Number: 294 "
      },
      "geometry": {
        "type": "Point",
        "coordinates": [
          -74.3106732,
          40.6869966
        ]
      }
    },
    {
      "type": "Feature",
      "properties": {
        "@id": "node/2919674576",
        "brand": "Dick's Sporting Goods",
        "city": "",
        "revenue": " $19,870,000 ",
        "name": " Store Number: 435 "
      },
      "geometry": {
        "type": "Point",
        "coordinates": [
          -73.4906184,
          44.7031254
        ]
      }
    },
    {
      "type": "Feature",
      "properties": {
        "@id": "node/3012509417",
        "brand": "Dick's Sporting Goods",
        "city": "",
        "revenue": " $51,110,000 ",
        "name": " Store Number: 152 "
      },
      "geometry": {
        "type": "Point",
        "coordinates": [
          -78.3841322,
          40.4869747
        ]
      }
    },
    {
      "type": "Feature",
      "properties": {
        "@id": "node/3088214796",
        "brand": "Dick's Sporting Goods",
        "city": "",
        "revenue": " $30,350,000 ",
        "name": " Store Number: 130 "
      },
      "geometry": {
        "type": "Point",
        "coordinates": [
          -76.6533228,
          39.4990589
        ]
      }
    },
    {
      "type": "Feature",
      "properties": {
        "@id": "node/3113295311",
        "brand": "Dick's Sporting Goods",
        "city": "",
        "revenue": " $45,720,000 ",
        "name": " Store Number: 93 "
      },
      "geometry": {
        "type": "Point",
        "coordinates": [
          -80.0564643,
          40.3438848
        ]
      }
    },
    {
      "type": "Feature",
      "properties": {
        "@id": "node/3227493499",
        "brand": "Dick's Sporting Goods",
        "city": "",
        "revenue": " $23,710,000 ",
        "name": " Store Number: 497 "
      },
      "geometry": {
        "type": "Point",
        "coordinates": [
          -79.5964353,
          40.3106187
        ]
      }
    },
    {
      "type": "Feature",
      "properties": {
        "@id": "node/3281423709",
        "brand": "Dick's Sporting Goods",
        "city": "Syracuse",
        "revenue": " $65,520,000 ",
        "name": " Store Number: 375 "
      },
      "geometry": {
        "type": "Point",
        "coordinates": [
          -76.1725005,
          43.0666747
        ]
      }
    },
    {
      "type": "Feature",
      "properties": {
        "@id": "node/3554944378",
        "brand": "Dick's Sporting Goods",
        "city": "Easton",
        "revenue": " $39,740,000 ",
        "name": " Store Number: 455 "
      },
      "geometry": {
        "type": "Point",
        "coordinates": [
          -75.2863592,
          40.6574285
        ]
      }
    },
    {
      "type": "Feature",
      "properties": {
        "@id": "node/3597570100",
        "brand": "Dick's Sporting Goods",
        "city": "",
        "revenue": " $40,200,000 ",
        "name": " Store Number: 377 "
      },
      "geometry": {
        "type": "Point",
        "coordinates": [
          -76.9241371,
          38.6182018
        ]
      }
    },
    {
      "type": "Feature",
      "properties": {
        "@id": "node/3641773527",
        "brand": "Dick's Sporting Goods",
        "city": "",
        "revenue": " $40,870,000 ",
        "name": " Store Number: 292 "
      },
      "geometry": {
        "type": "Point",
        "coordinates": [
          -73.0382485,
          41.2342872
        ]
      }
    },
    {
      "type": "Feature",
      "properties": {
        "@id": "node/3725120213",
        "brand": "Dick's Sporting Goods",
        "city": "",
        "revenue": " $33,380,000 ",
        "name": " Store Number: 215 "
      },
      "geometry": {
        "type": "Point",
        "coordinates": [
          -73.1338018,
          40.8642881
        ]
      }
    },
    {
      "type": "Feature",
      "properties": {
        "@id": "node/3728556105",
        "brand": "Dick's Sporting Goods",
        "city": "Midlothian",
        "revenue": " $3,530,000 ",
        "name": " Store Number: 197 "
      },
      "geometry": {
        "type": "Point",
        "coordinates": [
          -77.6294528,
          37.4203326
        ]
      }
    },
    {
      "type": "Feature",
      "properties": {
        "@id": "node/3769884550",
        "brand": "Dick's Sporting Goods",
        "city": "",
        "revenue": " $31,120,000 ",
        "name": " Store Number: 409 "
      },
      "geometry": {
        "type": "Point",
        "coordinates": [
          -68.7487358,
          44.829445
        ]
      }
    },
    {
      "type": "Feature",
      "properties": {
        "@id": "node/3785586528",
        "brand": "Dick's Sporting Goods",
        "city": "Woodbridge",
        "revenue": " $48,300,000 ",
        "name": " Store Number: 112 "
      },
      "geometry": {
        "type": "Point",
        "coordinates": [
          -77.2960317,
          38.6498312
        ]
      }
    },
    {
      "type": "Feature",
      "properties": {
        "@id": "node/3817284957",
        "brand": "Dick's Sporting Goods",
        "city": "",
        "revenue": " $55,140,000 ",
        "name": " Store Number: 1 "
      },
      "geometry": {
        "type": "Point",
        "coordinates": [
          -75.8899687,
          42.1047268
        ]
      }
    },
    {
      "type": "Feature",
      "properties": {
        "@id": "node/4062532852",
        "brand": "Dick's Sporting Goods",
        "city": "",
        "revenue": " $52,670,000 ",
        "name": " Store Number: 21 "
      },
      "geometry": {
        "type": "Point",
        "coordinates": [
          -72.8699384,
          41.3572443
        ]
      }
    },
    {
      "type": "Feature",
      "properties": {
        "@id": "node/4223068444",
        "brand": "Dick's Sporting Goods",
        "city": "",
        "revenue": " $40,770,000 ",
        "name": " Store Number: 462 "
      },
      "geometry": {
        "type": "Point",
        "coordinates": [
          -76.4800453,
          38.2845751
        ]
      }
    },
    {
      "type": "Feature",
      "properties": {
        "@id": "node/4352719886",
        "brand": "Dick's Sporting Goods",
        "city": "",
        "revenue": " $39,190,000 ",
        "name": " Store Number: 440 "
      },
      "geometry": {
        "type": "Point",
        "coordinates": [
          -76.346255,
          39.5238024
        ]
      }
    },
    {
      "type": "Feature",
      "properties": {
        "@id": "node/4362228287",
        "brand": "Dick's Sporting Goods",
        "city": "Arcola",
        "revenue": " $16,240,000 ",
        "name": " Store Number: 147 "
      },
      "geometry": {
        "type": "Point",
        "coordinates": [
          -77.520169,
          38.933567
        ]
      }
    },
    {
      "type": "Feature",
      "properties": {
        "@id": "node/4545084337",
        "brand": "Dick's Sporting Goods",
        "city": "Deer Park",
        "revenue": " $69,520,000 ",
        "name": " Store Number: 268 "
      },
      "geometry": {
        "type": "Point",
        "coordinates": [
          -73.3047302,
          40.7631751
        ]
      }
    },
    {
      "type": "Feature",
      "properties": {
        "@id": "node/4575399276",
        "brand": "Dick's Sporting Goods",
        "city": "Winchester",
        "revenue": " $60,150,000 ",
        "name": " Store Number: 293 "
      },
      "geometry": {
        "type": "Point",
        "coordinates": [
          -78.167093,
          39.167136
        ]
      }
    },
    {
      "type": "Feature",
      "properties": {
        "@id": "node/4712127575",
        "brand": "Dick's Sporting Goods",
        "city": "",
        "revenue": " $5,150,000 ",
        "name": " Store Number: 355 "
      },
      "geometry": {
        "type": "Point",
        "coordinates": [
          -79.5057366,
          40.2976342
        ]
      }
    },
    {
      "type": "Feature",
      "properties": {
        "@id": "node/4738896950",
        "brand": "Dick's Sporting Goods",
        "city": "",
        "revenue": " $60,770,000 ",
        "name": " Store Number: 51 "
      },
      "geometry": {
        "type": "Point",
        "coordinates": [
          -75.0369541,
          39.4315619
        ]
      }
    },
    {
      "type": "Feature",
      "properties": {
        "@id": "node/4746407312",
        "brand": "Dick's Sporting Goods",
        "city": "",
        "revenue": " $29,030,000 ",
        "name": " Store Number: 66 "
      },
      "geometry": {
        "type": "Point",
        "coordinates": [
          -78.8451487,
          38.4284512
        ]
      }
    },
    {
      "type": "Feature",
      "properties": {
        "@id": "node/4965672541",
        "brand": "Dick's Sporting Goods",
        "city": "",
        "revenue": " $42,810,000 ",
        "name": " Store Number: 46 "
      },
      "geometry": {
        "type": "Point",
        "coordinates": [
          -72.810106,
          41.5512598
        ]
      }
    },
    {
      "type": "Feature",
      "properties": {
        "@id": "node/5040124798",
        "brand": "Dick's Sporting Goods",
        "city": "",
        "revenue": " $15,530,000 ",
        "name": " Store Number: 234 "
      },
      "geometry": {
        "type": "Point",
        "coordinates": [
          -74.6795004,
          40.3059646
        ]
      }
    },
    {
      "type": "Feature",
      "properties": {
        "@id": "node/5049798447",
        "brand": "Dick's Sporting Goods",
        "city": "",
        "revenue": " $34,980,000 ",
        "name": " Store Number: 429 "
      },
      "geometry": {
        "type": "Point",
        "coordinates": [
          -75.6559308,
          41.458504
        ]
      }
    },
    {
      "type": "Feature",
      "properties": {
        "@id": "node/5059445263",
        "brand": "Dick's Sporting Goods",
        "city": "North Wales",
        "revenue": " $39,560,000 ",
        "name": " Store Number: 109 "
      },
      "geometry": {
        "type": "Point",
        "coordinates": [
          -75.2459385,
          40.2358321
        ]
      }
    },
    {
      "type": "Feature",
      "properties": {
        "@id": "node/5180773537",
        "brand": "Dick's Sporting Goods",
        "city": "Willow Grove",
        "revenue": " $17,630,000 ",
        "name": " Store Number: 233 "
      },
      "geometry": {
        "type": "Point",
        "coordinates": [
          -75.1206286,
          40.1422809
        ]
      }
    },
    {
      "type": "Feature",
      "properties": {
        "@id": "node/5191379200",
        "brand": "Dick's Sporting Goods",
        "city": "",
        "revenue": " $6,440,000 ",
        "name": " Store Number: 269 "
      },
      "geometry": {
        "type": "Point",
        "coordinates": [
          -75.3140239,
          43.0825247
        ]
      }
    },
    {
      "type": "Feature",
      "properties": {
        "@id": "node/5191735700",
        "brand": "Dick's Sporting Goods",
        "city": "",
        "revenue": " $41,980,000 ",
        "name": " Store Number: 453 "
      },
      "geometry": {
        "type": "Point",
        "coordinates": [
          -76.9341244,
          40.2220213
        ]
      }
    },
    {
      "type": "Feature",
      "properties": {
        "@id": "node/5240452321",
        "brand": "Dick's Sporting Goods",
        "city": "",
        "revenue": " $43,490,000 ",
        "name": " Store Number: 496 "
      },
      "geometry": {
        "type": "Point",
        "coordinates": [
          -74.1676063,
          40.5864406
        ]
      }
    },
    {
      "type": "Feature",
      "properties": {
        "@id": "node/5276551311",
        "brand": "Dick's Sporting Goods",
        "city": "",
        "revenue": " $22,520,000 ",
        "name": " Store Number: 419 "
      },
      "geometry": {
        "type": "Point",
        "coordinates": [
          -73.1112091,
          44.4429017
        ]
      }
    },
    {
      "type": "Feature",
      "properties": {
        "@id": "node/5388234507",
        "brand": "Dick's Sporting Goods",
        "city": "",
        "revenue": " $30,560,000 ",
        "name": " Store Number: 263 "
      },
      "geometry": {
        "type": "Point",
        "coordinates": [
          -73.4103316,
          40.7988388
        ]
      }
    },
    {
      "type": "Feature",
      "properties": {
        "@id": "node/5451253521",
        "brand": "Dick's Sporting Goods",
        "city": "",
        "revenue": " $6,190,000 ",
        "name": " Store Number: 244 "
      },
      "geometry": {
        "type": "Point",
        "coordinates": [
          -73.8561927,
          40.9660031
        ]
      }
    },
    {
      "type": "Feature",
      "properties": {
        "@id": "node/5486906525",
        "brand": "Dick's Sporting Goods",
        "city": "",
        "revenue": " $27,440,000 ",
        "name": " Store Number: 97 "
      },
      "geometry": {
        "type": "Point",
        "coordinates": [
          -73.2065863,
          42.464864
        ]
      }
    },
    {
      "type": "Feature",
      "properties": {
        "@id": "node/5487812478",
        "brand": "Dick's Sporting Goods",
        "city": "Tarentum",
        "revenue": " $35,270,000 ",
        "name": " Store Number: 271 "
      },
      "geometry": {
        "type": "Point",
        "coordinates": [
          -79.7934904,
          40.5726336
        ]
      }
    },
    {
      "type": "Feature",
      "properties": {
        "@id": "node/5493744137",
        "brand": "Dick's Sporting Goods",
        "city": "",
        "revenue": " $23,740,000 ",
        "name": " Store Number: 125 "
      },
      "geometry": {
        "type": "Point",
        "coordinates": [
          -76.0668509,
          43.0452098
        ]
      }
    },
    {
      "type": "Feature",
      "properties": {
        "@id": "node/5567350279",
        "brand": "Dick's Sporting Goods",
        "city": "",
        "revenue": " $68,930,000 ",
        "name": " Store Number: 353 "
      },
      "geometry": {
        "type": "Point",
        "coordinates": [
          -76.3113517,
          40.0670659
        ]
      }
    },
    {
      "type": "Feature",
      "properties": {
        "@id": "node/5607583383",
        "brand": "Dick's Sporting Goods",
        "city": "Natick",
        "revenue": " $42,470,000 ",
        "name": " Store Number: 107 "
      },
      "geometry": {
        "type": "Point",
        "coordinates": [
          -71.3867439,
          42.2980441
        ]
      }
    },
    {
      "type": "Feature",
      "properties": {
        "@id": "node/5800087428",
        "brand": "Dick's Sporting Goods",
        "city": "",
        "revenue": " $42,560,000 ",
        "name": " Store Number: 355 "
      },
      "geometry": {
        "type": "Point",
        "coordinates": [
          -75.4909529,
          40.6473726
        ]
      }
    },
    {
      "type": "Feature",
      "properties": {
        "@id": "node/5862524911",
        "brand": "Dick's Sporting Goods",
        "city": "Monroeville",
        "revenue": " $63,380,000 ",
        "name": " Store Number: 377 "
      },
      "geometry": {
        "type": "Point",
        "coordinates": [
          -79.7977704,
          40.4295278
        ]
      }
    },
    {
      "type": "Feature",
      "properties": {
        "@id": "node/5939556406",
        "brand": "Dick's Sporting Goods",
        "city": "Culpeper",
        "revenue": " $57,470,000 ",
        "name": " Store Number: 2 "
      },
      "geometry": {
        "type": "Point",
        "coordinates": [
          -77.9659686,
          38.4833168
        ]
      }
    },
    {
      "type": "Feature",
      "properties": {
        "@id": "node/5973451196",
        "brand": "Dick's Sporting Goods",
        "city": "",
        "revenue": " $38,570,000 ",
        "name": " Store Number: 357 "
      },
      "geometry": {
        "type": "Point",
        "coordinates": [
          -73.7268933,
          40.6625597
        ]
      }
    },
    {
      "type": "Feature",
      "properties": {
        "@id": "node/6362205282",
        "brand": "Dick's Sporting Goods",
        "city": "",
        "revenue": " $2,790,000 ",
        "name": " Store Number: 239 "
      },
      "geometry": {
        "type": "Point",
        "coordinates": [
          -75.5405788,
          39.8313385
        ]
      }
    },
    {
      "type": "Feature",
      "properties": {
        "@id": "node/6399810385",
        "brand": "Dick's Sporting Goods",
        "city": "",
        "revenue": " $66,630,000 ",
        "name": " Store Number: 250 "
      },
      "geometry": {
        "type": "Point",
        "coordinates": [
          -79.9620704,
          37.3072637
        ]
      }
    },
    {
      "type": "Feature",
      "properties": {
        "@id": "node/6422017285",
        "brand": "Dick's Sporting Goods",
        "city": "",
        "revenue": " $65,290,000 ",
        "name": " Store Number: 433 "
      },
      "geometry": {
        "type": "Point",
        "coordinates": [
          -77.1739835,
          38.7731697
        ]
      }
    },
    {
      "type": "Feature",
      "properties": {
        "@id": "node/6476908404",
        "brand": "Dick's Sporting Goods",
        "city": "",
        "revenue": " $29,260,000 ",
        "name": " Store Number: 169 "
      },
      "geometry": {
        "type": "Point",
        "coordinates": [
          -75.5394234,
          39.1929113
        ]
      }
    },
    {
      "type": "Feature",
      "properties": {
        "@id": "node/6522609508",
        "brand": "Dick's Sporting Goods",
        "city": "",
        "revenue": " $36,970,000 ",
        "name": " Store Number: 42 "
      },
      "geometry": {
        "type": "Point",
        "coordinates": [
          -77.4985118,
          37.5811277
        ]
      }
    },
    {
      "type": "Feature",
      "properties": {
        "@id": "node/6592960555",
        "brand": "Dick's Sporting Goods",
        "city": "",
        "revenue": " $69,130,000 ",
        "name": " Store Number: 267 "
      },
      "geometry": {
        "type": "Point",
        "coordinates": [
          -74.9674247,
          40.0855698
        ]
      }
    },
    {
      "type": "Feature",
      "properties": {
        "@id": "node/6634695172",
        "brand": "Dick's Sporting Goods",
        "city": "",
        "revenue": " $34,220,000 ",
        "name": " Store Number: 138 "
      },
      "geometry": {
        "type": "Point",
        "coordinates": [
          -77.0546743,
          39.0352395
        ]
      }
    },
    {
      "type": "Feature",
      "properties": {
        "@id": "node/6682990966",
        "brand": "Dick's Sporting Goods",
        "city": "",
        "revenue": " $28,890,000 ",
        "name": " Store Number: 195 "
      },
      "geometry": {
        "type": "Point",
        "coordinates": [
          -77.464525,
          37.6705494
        ]
      }
    },
    {
      "type": "Feature",
      "properties": {
        "@id": "node/6760869740",
        "brand": "Dick's Sporting Goods",
        "city": "",
        "revenue": " $22,270,000 ",
        "name": " Store Number: 382 "
      },
      "geometry": {
        "type": "Point",
        "coordinates": [
          -76.4900294,
          42.4820786
        ]
      }
    },
    {
      "type": "Feature",
      "properties": {
        "@id": "node/6766626815",
        "brand": "Dick's Sporting Goods",
        "city": "",
        "revenue": " $8,720,000 ",
        "name": " Store Number: 115 "
      },
      "geometry": {
        "type": "Point",
        "coordinates": [
          -76.9828313,
          39.5800493
        ]
      }
    },
    {
      "type": "Feature",
      "properties": {
        "@id": "node/6824452500",
        "brand": "Dick's Sporting Goods",
        "city": "",
        "revenue": " $65,910,000 ",
        "name": " Store Number: 314 "
      },
      "geometry": {
        "type": "Point",
        "coordinates": [
          -74.285259,
          39.7091747
        ]
      }
    },
    {
      "type": "Feature",
      "properties": {
        "@id": "node/6925171948",
        "brand": "Dick's Sporting Goods",
        "city": "",
        "revenue": " $60,450,000 ",
        "name": " Store Number: 202 "
      },
      "geometry": {
        "type": "Point",
        "coordinates": [
          -71.1672881,
          42.2573098
        ]
      }
    },
    {
      "type": "Feature",
      "properties": {
        "@id": "node/7115039793",
        "brand": "Dick's Sporting Goods",
        "city": "",
        "revenue": " $68,130,000 ",
        "name": " Store Number: 342 "
      },
      "geometry": {
        "type": "Point",
        "coordinates": [
          -77.5130356,
          38.2927314
        ]
      }
    },
    {
      "type": "Feature",
      "properties": {
        "@id": "node/7272562031",
        "brand": "Dick's Sporting Goods",
        "city": "",
        "revenue": " $13,660,000 ",
        "name": " Store Number: 38 "
      },
      "geometry": {
        "type": "Point",
        "coordinates": [
          -73.8076741,
          41.3291853
        ]
      }
    },
    {
      "type": "Feature",
      "properties": {
        "@id": "node/7624323989",
        "brand": "Dick's Sporting Goods",
        "city": "Erie",
        "revenue": " $12,380,000 ",
        "name": " Store Number: 425 "
      },
      "geometry": {
        "type": "Point",
        "coordinates": [
          -80.1043825,
          42.0699156
        ]
      }
    },
    {
      "type": "Feature",
      "properties": {
        "@id": "node/7823542472",
        "brand": "Dick's Sporting Goods",
        "city": "Bailey's Crossroads",
        "revenue": " $17,250,000 ",
        "name": " Store Number: 172 "
      },
      "geometry": {
        "type": "Point",
        "coordinates": [
          -77.1277007,
          38.852121
        ]
      }
    },
    {
      "type": "Feature",
      "properties": {
        "@id": "node/7945889927",
        "brand": "Dick's Sporting Goods",
        "city": "",
        "revenue": " $2,930,000 ",
        "name": " Store Number: 311 "
      },
      "geometry": {
        "type": "Point",
        "coordinates": [
          -73.4801423,
          41.3793479
        ]
      }
    },
    {
      "type": "Feature",
      "properties": {
        "@id": "node/8237929141",
        "brand": "Dick's Sporting Goods",
        "city": "",
        "revenue": " $47,010,000 ",
        "name": " Store Number: 410 "
      },
      "geometry": {
        "type": "Point",
        "coordinates": [
          -79.1766091,
          37.3665658
        ]
      }
    },
    {
      "type": "Feature",
      "properties": {
        "@id": "node/8331873735",
        "brand": "Dick's Sporting Goods",
        "city": "",
        "revenue": " $59,790,000 ",
        "name": " Store Number: 179 "
      },
      "geometry": {
        "type": "Point",
        "coordinates": [
          -73.9571915,
          41.0968369
        ]
      }
    },
    {
      "type": "Feature",
      "properties": {
        "@id": "node/8476144180",
        "brand": "Dick's Sporting Goods",
        "city": "",
        "revenue": " $20,250,000 ",
        "name": " Store Number: 121 "
      },
      "geometry": {
        "type": "Point",
        "coordinates": [
          -75.6522096,
          39.6743038
        ]
      }
    },
    {
      "type": "Feature",
      "properties": {
        "@id": "node/8584250644",
        "brand": "Dick's Sporting Goods",
        "city": "Victor",
        "revenue": " $52,200,000 ",
        "name": " Store Number: 51 "
      },
      "geometry": {
        "type": "Point",
        "coordinates": [
          -77.4435433,
          43.0306899
        ]
      }
    },
    {
      "type": "Feature",
      "properties": {
        "@id": "node/9118222722",
        "brand": "Dick's Sporting Goods",
        "city": "",
        "revenue": " $15,390,000 ",
        "name": " Store Number: 231 "
      },
      "geometry": {
        "type": "Point",
        "coordinates": [
          -77.3605364,
          38.8632004
        ]
      }
    },
    {
      "type": "Feature",
      "properties": {
        "@id": "node/9172505093",
        "brand": "Dick's Sporting Goods",
        "city": "",
        "revenue": " $61,280,000 ",
        "name": " Store Number: 375 "
      },
      "geometry": {
        "type": "Point",
        "coordinates": [
          -71.052415,
          42.0966357
        ]
      }
    },
    {
      "type": "Feature",
      "properties": {
        "@id": "node/9180216297",
        "brand": "Dick's Sporting Goods",
        "city": "Orchard Park",
        "revenue": " $64,530,000 ",
        "name": " Store Number: 205 "
      },
      "geometry": {
        "type": "Point",
        "coordinates": [
          -78.7866407,
          42.7920049
        ]
      }
    },
    {
      "type": "Feature",
      "properties": {
        "@id": "node/9181240149",
        "brand": "Dick's Sporting Goods",
        "city": "Amherst",
        "revenue": " $55,100,000 ",
        "name": " Store Number: 135 "
      },
      "geometry": {
        "type": "Point",
        "coordinates": [
          -78.8188351,
          42.9868949
        ]
      }
    },
    {
      "type": "Feature",
      "properties": {
        "@id": "node/9432201546",
        "brand": "Dick's Sporting Goods",
        "city": "Waterford",
        "revenue": " $28,360,000 ",
        "name": " Store Number: 78 "
      },
      "geometry": {
        "type": "Point",
        "coordinates": [
          -72.1519598,
          41.3830804
        ]
      }
    },
    {
      "type": "Feature",
      "properties": {
        "@id": "node/9447907062",
        "brand": "Dick's Sporting Goods",
        "city": "Riverhead",
        "revenue": " $46,880,000 ",
        "name": " Store Number: 113 "
      },
      "geometry": {
        "type": "Point",
        "coordinates": [
          -72.7022877,
          40.9228983
        ]
      }
    },
    {
      "type": "Feature",
      "properties": {
        "@id": "node/9517862513",
        "brand": "Dick's Sporting Goods",
        "city": "",
        "revenue": " $23,170,000 ",
        "name": " Store Number: 403 "
      },
      "geometry": {
        "type": "Point",
        "coordinates": [
          -75.9530578,
          43.9792734
        ]
      }
    },
    {
      "type": "Feature",
      "properties": {
        "@id": "node/9528303632",
        "brand": "Dick's Sporting Goods",
        "city": "Newington",
        "revenue": " $16,860,000 ",
        "name": " Store Number: 64 "
      },
      "geometry": {
        "type": "Point",
        "coordinates": [
          -70.8022778,
          43.0936989
        ]
      }
    },
    {
      "type": "Feature",
      "properties": {
        "@id": "node/9684104086",
        "brand": "Dick's Sporting Goods",
        "city": "",
        "revenue": " $11,000,000 ",
        "name": " Store Number: 272 "
      },
      "geometry": {
        "type": "Point",
        "coordinates": [
          -72.8400712,
          41.6734365
        ]
      }
    },
    {
      "type": "Feature",
      "properties": {
        "@id": "node/9885936506",
        "brand": "Dick's Sporting Goods",
        "city": "",
        "revenue": " $41,160,000 ",
        "name": " Store Number: 483 "
      },
      "geometry": {
        "type": "Point",
        "coordinates": [
          -71.7778926,
          42.1956754
        ]
      }
    },
    {
      "type": "Feature",
      "properties": {
        "@id": "node/10172769349",
        "brand": "Dick's Sporting Goods",
        "city": "",
        "revenue": " $44,290,000 ",
        "name": " Store Number: 319 "
      },
      "geometry": {
        "type": "Point",
        "coordinates": [
          -71.2317529,
          42.7696505
        ]
      }
    },
    {
      "type": "Feature",
      "properties": {
        "@id": "node/10236398133",
        "brand": "Dick's Sporting Goods",
        "city": "",
        "revenue": " $17,560,000 ",
        "name": " Store Number: 202 "
      },
      "geometry": {
        "type": "Point",
        "coordinates": [
          -72.9707695,
          43.5852776
        ]
      }
    },
    {
      "type": "Feature",
      "properties": {
        "@id": "node/318783163",
        "brand": "Dick's Sporting Goods",
        "city": "",
        "revenue": " $32,620,000 ",
        "name": " Store Number: 344 "
      },
      "geometry": {
        "type": "Point",
        "coordinates": [
          -75.102563,
          39.8300674
        ]
      }
    },
    {
      "type": "Feature",
      "properties": {
        "@id": "node/642864150",
        "brand": "Dick's Sporting Goods",
        "city": "",
        "revenue": " $26,320,000 ",
        "name": " Store Number: 328 "
      },
      "geometry": {
        "type": "Point",
        "coordinates": [
          -74.6295804,
          39.4508931
        ]
      }
    },
    {
      "type": "Feature",
      "properties": {
        "@id": "node/683681482",
        "brand": "Dick's Sporting Goods",
        "city": "",
        "revenue": " $51,900,000 ",
        "name": " Store Number: 176 "
      },
      "geometry": {
        "type": "Point",
        "coordinates": [
          -74.8646357,
          40.1854708
        ]
      }
    },
    {
      "type": "Feature",
      "properties": {
        "@id": "node/876264870",
        "brand": "Dick's Sporting Goods",
        "city": "",
        "revenue": " $68,350,000 ",
        "name": " Store Number: 167 "
      },
      "geometry": {
        "type": "Point",
        "coordinates": [
          -71.7704818,
          42.2930028
        ]
      }
    },
    {
      "type": "Feature",
      "properties": {
        "@id": "node/1554648188",
        "brand": "Dick's Sporting Goods",
        "city": "",
        "revenue": " $62,760,000 ",
        "name": " Store Number: 12 "
      },
      "geometry": {
        "type": "Point",
        "coordinates": [
          -76.805573,
          40.3120026
        ]
      }
    },
    {
      "type": "Feature",
      "properties": {
        "@id": "node/1608145641",
        "brand": "Dick's Sporting Goods",
        "city": "Webster",
        "revenue": " $3,800,000 ",
        "name": " Store Number: 46 "
      },
      "geometry": {
        "type": "Point",
        "coordinates": [
          -77.4492073,
          43.211336
        ]
      }
    },
    {
      "type": "Feature",
      "properties": {
        "@id": "node/1647278259",
        "brand": "Dick's Sporting Goods",
        "city": "",
        "revenue": " $29,900,000 ",
        "name": " Store Number: 299 "
      },
      "geometry": {
        "type": "Point",
        "coordinates": [
          -72.5760025,
          41.9951575
        ]
      }
    },
    {
      "type": "Feature",
      "properties": {
        "@id": "node/1671352458",
        "brand": "Dick's Sporting Goods",
        "city": "",
        "revenue": " $12,490,000 ",
        "name": " Store Number: 207 "
      },
      "geometry": {
        "type": "Point",
        "coordinates": [
          -71.7147694,
          42.5249707
        ]
      }
    },
    {
      "type": "Feature",
      "properties": {
        "@id": "node/1847617290",
        "brand": "Dick's Sporting Goods",
        "city": "East Hanover",
        "revenue": " $1,140,000 ",
        "name": " Store Number: 21 "
      },
      "geometry": {
        "type": "Point",
        "coordinates": [
          -74.3722521,
          40.8093808
        ]
      }
    },
    {
      "type": "Feature",
      "properties": {
        "@id": "node/2104415957",
        "brand": "Dick's Sporting Goods",
        "city": "East Brunswick",
        "revenue": " $68,130,000 ",
        "name": " Store Number: 396 "
      },
      "geometry": {
        "type": "Point",
        "coordinates": [
          -74.4018263,
          40.4555146
        ]
      }
    },
    {
      "type": "Feature",
      "properties": {
        "@id": "node/2195333064",
        "brand": "Dick's Sporting Goods",
        "city": "Monroeville",
        "revenue": " $18,930,000 ",
        "name": " Store Number: 187 "
      },
      "geometry": {
        "type": "Point",
        "coordinates": [
          -79.7966674,
          40.4269647
        ]
      }
    },
    {
      "type": "Feature",
      "properties": {
        "@id": "node/2304260971",
        "brand": "Dick's Sporting Goods",
        "city": "",
        "revenue": " $41,770,000 ",
        "name": " Store Number: 419 "
      },
      "geometry": {
        "type": "Point",
        "coordinates": [
          -77.517769,
          38.7877927
        ]
      }
    },
    {
      "type": "Feature",
      "properties": {
        "@id": "node/2321176768",
        "brand": "Dick's Sporting Goods",
        "city": "Leesburg",
        "revenue": " $64,500,000 ",
        "name": " Store Number: 102 "
      },
      "geometry": {
        "type": "Point",
        "coordinates": [
          -77.5328517,
          39.1131625
        ]
      }
    },
    {
      "type": "Feature",
      "properties": {
        "@id": "node/2417264444",
        "brand": "Dick's Sporting Goods",
        "city": "",
        "revenue": " $28,050,000 ",
        "name": " Store Number: 468 "
      },
      "geometry": {
        "type": "Point",
        "coordinates": [
          -71.5169239,
          41.8748983
        ]
      }
    },
    {
      "type": "Feature",
      "properties": {
        "@id": "node/2421164820",
        "brand": "Dick's Sporting Goods",
        "city": "York",
        "revenue": " $23,340,000 ",
        "name": " Store Number: 404 "
      },
      "geometry": {
        "type": "Point",
        "coordinates": [
          -76.6674744,
          39.9843596
        ]
      }
    },
    {
      "type": "Feature",
      "properties": {
        "@id": "node/2508538606",
        "brand": "Dick's Sporting Goods",
        "city": "",
        "revenue": " $14,340,000 ",
        "name": " Store Number: 308 "
      },
      "geometry": {
        "type": "Point",
        "coordinates": [
          -75.0471475,
          42.4471171
        ]
      }
    },
    {
      "type": "Feature",
      "properties": {
        "@id": "node/2630346884",
        "brand": "Dick's Sporting Goods",
        "city": "Sterling",
        "revenue": " $14,920,000 ",
        "name": " Store Number: 134 "
      },
      "geometry": {
        "type": "Point",
        "coordinates": [
          -77.4223626,
          39.032016
        ]
      }
    },
    {
      "type": "Feature",
      "properties": {
        "@id": "node/2635588838",
        "brand": "Dick's Sporting Goods",
        "city": "",
        "revenue": " $33,510,000 ",
        "name": " Store Number: 456 "
      },
      "geometry": {
        "type": "Point",
        "coordinates": [
          -80.3133093,
          40.675382
        ]
      }
    },
    {
      "type": "Feature",
      "properties": {
        "@id": "node/2674320213",
        "brand": "Dick's Sporting Goods",
        "city": "",
        "revenue": " $12,890,000 ",
        "name": " Store Number: 25 "
      },
      "geometry": {
        "type": "Point",
        "coordinates": [
          -75.6796783,
          40.0164033
        ]
      }
    },
    {
      "type": "Feature",
      "properties": {
        "@id": "node/2892672769",
        "brand": "Dick's Sporting Goods",
        "city": "",
        "revenue": " $14,200,000 ",
        "name": " Store Number: 294 "
      },
      "geometry": {
        "type": "Point",
        "coordinates": [
          -74.3106732,
          40.6869966
        ]
      }
    },
    {
      "type": "Feature",
      "properties": {
        "@id": "node/2919674576",
        "brand": "Dick's Sporting Goods",
        "city": "",
        "revenue": " $19,870,000 ",
        "name": " Store Number: 435 "
      },
      "geometry": {
        "type": "Point",
        "coordinates": [
          -73.4906184,
          44.7031254
        ]
      }
    },
    {
      "type": "Feature",
      "properties": {
        "@id": "node/3012509417",
        "brand": "Dick's Sporting Goods",
        "city": "",
        "revenue": " $51,110,000 ",
        "name": " Store Number: 152 "
      },
      "geometry": {
        "type": "Point",
        "coordinates": [
          -78.3841322,
          40.4869747
        ]
      }
    },
    {
      "type": "Feature",
      "properties": {
        "@id": "node/3088214796",
        "brand": "Dick's Sporting Goods",
        "city": "",
        "revenue": " $30,350,000 ",
        "name": " Store Number: 130 "
      },
      "geometry": {
        "type": "Point",
        "coordinates": [
          -76.6533228,
          39.4990589
        ]
      }
    },
    {
      "type": "Feature",
      "properties": {
        "@id": "node/3113295311",
        "brand": "Dick's Sporting Goods",
        "city": "",
        "revenue": " $45,720,000 ",
        "name": " Store Number: 93 "
      },
      "geometry": {
        "type": "Point",
        "coordinates": [
          -80.0564643,
          40.3438848
        ]
      }
    },
    {
      "type": "Feature",
      "properties": {
        "@id": "node/3227493499",
        "brand": "Dick's Sporting Goods",
        "city": "",
        "revenue": " $23,710,000 ",
        "name": " Store Number: 497 "
      },
      "geometry": {
        "type": "Point",
        "coordinates": [
          -79.5964353,
          40.3106187
        ]
      }
    },
    {
      "type": "Feature",
      "properties": {
        "@id": "node/3281423709",
        "brand": "Dick's Sporting Goods",
        "city": "Syracuse",
        "revenue": " $65,520,000 ",
        "name": " Store Number: 375 "
      },
      "geometry": {
        "type": "Point",
        "coordinates": [
          -76.1725005,
          43.0666747
        ]
      }
    },
    {
      "type": "Feature",
      "properties": {
        "@id": "node/3554944378",
        "brand": "Dick's Sporting Goods",
        "city": "Easton",
        "revenue": " $39,740,000 ",
        "name": " Store Number: 455 "
      },
      "geometry": {
        "type": "Point",
        "coordinates": [
          -75.2863592,
          40.6574285
        ]
      }
    },
    {
      "type": "Feature",
      "properties": {
        "@id": "node/3597570100",
        "brand": "Dick's Sporting Goods",
        "city": "",
        "revenue": " $40,200,000 ",
        "name": " Store Number: 377 "
      },
      "geometry": {
        "type": "Point",
        "coordinates": [
          -76.9241371,
          38.6182018
        ]
      }
    },
    {
      "type": "Feature",
      "properties": {
        "@id": "node/3641773527",
        "brand": "Dick's Sporting Goods",
        "city": "",
        "revenue": " $40,870,000 ",
        "name": " Store Number: 292 "
      },
      "geometry": {
        "type": "Point",
        "coordinates": [
          -73.0382485,
          41.2342872
        ]
      }
    },
    {
      "type": "Feature",
      "properties": {
        "@id": "node/3725120213",
        "brand": "Dick's Sporting Goods",
        "city": "",
        "revenue": " $33,380,000 ",
        "name": " Store Number: 215 "
      },
      "geometry": {
        "type": "Point",
        "coordinates": [
          -73.1338018,
          40.8642881
        ]
      }
    },
    {
      "type": "Feature",
      "properties": {
        "@id": "node/3728556105",
        "brand": "Dick's Sporting Goods",
        "city": "Midlothian",
        "revenue": " $3,530,000 ",
        "name": " Store Number: 197 "
      },
      "geometry": {
        "type": "Point",
        "coordinates": [
          -77.6294528,
          37.4203326
        ]
      }
    },
    {
      "type": "Feature",
      "properties": {
        "@id": "node/3769884550",
        "brand": "Dick's Sporting Goods",
        "city": "",
        "revenue": " $31,120,000 ",
        "name": " Store Number: 409 "
      },
      "geometry": {
        "type": "Point",
        "coordinates": [
          -68.7487358,
          44.829445
        ]
      }
    },
    {
      "type": "Feature",
      "properties": {
        "@id": "node/3785586528",
        "brand": "Dick's Sporting Goods",
        "city": "Woodbridge",
        "revenue": " $48,300,000 ",
        "name": " Store Number: 112 "
      },
      "geometry": {
        "type": "Point",
        "coordinates": [
          -77.2960317,
          38.6498312
        ]
      }
    },
    {
      "type": "Feature",
      "properties": {
        "@id": "node/3817284957",
        "brand": "Dick's Sporting Goods",
        "city": "",
        "revenue": " $55,140,000 ",
        "name": " Store Number: 1 "
      },
      "geometry": {
        "type": "Point",
        "coordinates": [
          -75.8899687,
          42.1047268
        ]
      }
    },
    {
      "type": "Feature",
      "properties": {
        "@id": "node/4062532852",
        "brand": "Dick's Sporting Goods",
        "city": "",
        "revenue": " $52,670,000 ",
        "name": " Store Number: 21 "
      },
      "geometry": {
        "type": "Point",
        "coordinates": [
          -72.8699384,
          41.3572443
        ]
      }
    },
    {
      "type": "Feature",
      "properties": {
        "@id": "node/4223068444",
        "brand": "Dick's Sporting Goods",
        "city": "",
        "revenue": " $40,770,000 ",
        "name": " Store Number: 462 "
      },
      "geometry": {
        "type": "Point",
        "coordinates": [
          -76.4800453,
          38.2845751
        ]
      }
    },
    {
      "type": "Feature",
      "properties": {
        "@id": "node/4352719886",
        "brand": "Dick's Sporting Goods",
        "city": "",
        "revenue": " $39,190,000 ",
        "name": " Store Number: 440 "
      },
      "geometry": {
        "type": "Point",
        "coordinates": [
          -76.346255,
          39.5238024
        ]
      }
    },
    {
      "type": "Feature",
      "properties": {
        "@id": "node/4362228287",
        "brand": "Dick's Sporting Goods",
        "city": "Arcola",
        "revenue": " $16,240,000 ",
        "name": " Store Number: 147 "
      },
      "geometry": {
        "type": "Point",
        "coordinates": [
          -77.520169,
          38.933567
        ]
      }
    },
    {
      "type": "Feature",
      "properties": {
        "@id": "node/4545084337",
        "brand": "Dick's Sporting Goods",
        "city": "Deer Park",
        "revenue": " $69,520,000 ",
        "name": " Store Number: 268 "
      },
      "geometry": {
        "type": "Point",
        "coordinates": [
          -73.3047302,
          40.7631751
        ]
      }
    },
    {
      "type": "Feature",
      "properties": {
        "@id": "node/4575399276",
        "brand": "Dick's Sporting Goods",
        "city": "Winchester",
        "revenue": " $60,150,000 ",
        "name": " Store Number: 293 "
      },
      "geometry": {
        "type": "Point",
        "coordinates": [
          -78.167093,
          39.167136
        ]
      }
    },
    {
      "type": "Feature",
      "properties": {
        "@id": "node/4712127575",
        "brand": "Dick's Sporting Goods",
        "city": "",
        "revenue": " $5,150,000 ",
        "name": " Store Number: 355 "
      },
      "geometry": {
        "type": "Point",
        "coordinates": [
          -79.5057366,
          40.2976342
        ]
      }
    },
    {
      "type": "Feature",
      "properties": {
        "@id": "node/4738896950",
        "brand": "Dick's Sporting Goods",
        "city": "",
        "revenue": " $60,770,000 ",
        "name": " Store Number: 51 "
      },
      "geometry": {
        "type": "Point",
        "coordinates": [
          -75.0369541,
          39.4315619
        ]
      }
    },
    {
      "type": "Feature",
      "properties": {
        "@id": "node/4746407312",
        "brand": "Dick's Sporting Goods",
        "city": "",
        "revenue": " $29,030,000 ",
        "name": " Store Number: 66 "
      },
      "geometry": {
        "type": "Point",
        "coordinates": [
          -78.8451487,
          38.4284512
        ]
      }
    },
    {
      "type": "Feature",
      "properties": {
        "@id": "node/4965672541",
        "brand": "Dick's Sporting Goods",
        "city": "",
        "revenue": " $42,810,000 ",
        "name": " Store Number: 46 "
      },
      "geometry": {
        "type": "Point",
        "coordinates": [
          -72.810106,
          41.5512598
        ]
      }
    },
    {
      "type": "Feature",
      "properties": {
        "@id": "node/5040124798",
        "brand": "Dick's Sporting Goods",
        "city": "",
        "revenue": " $15,530,000 ",
        "name": " Store Number: 234 "
      },
      "geometry": {
        "type": "Point",
        "coordinates": [
          -74.6795004,
          40.3059646
        ]
      }
    },
    {
      "type": "Feature",
      "properties": {
        "@id": "node/5049798447",
        "brand": "Dick's Sporting Goods",
        "city": "",
        "revenue": " $34,980,000 ",
        "name": " Store Number: 429 "
      },
      "geometry": {
        "type": "Point",
        "coordinates": [
          -75.6559308,
          41.458504
        ]
      }
    },
    {
      "type": "Feature",
      "properties": {
        "@id": "node/5059445263",
        "brand": "Dick's Sporting Goods",
        "city": "North Wales",
        "revenue": " $39,560,000 ",
        "name": " Store Number: 109 "
      },
      "geometry": {
        "type": "Point",
        "coordinates": [
          -75.2459385,
          40.2358321
        ]
      }
    },
    {
      "type": "Feature",
      "properties": {
        "@id": "node/5180773537",
        "brand": "Dick's Sporting Goods",
        "city": "Willow Grove",
        "revenue": " $17,630,000 ",
        "name": " Store Number: 233 "
      },
      "geometry": {
        "type": "Point",
        "coordinates": [
          -75.1206286,
          40.1422809
        ]
      }
    },
    {
      "type": "Feature",
      "properties": {
        "@id": "node/5191379200",
        "brand": "Dick's Sporting Goods",
        "city": "",
        "revenue": " $6,440,000 ",
        "name": " Store Number: 269 "
      },
      "geometry": {
        "type": "Point",
        "coordinates": [
          -75.3140239,
          43.0825247
        ]
      }
    },
    {
      "type": "Feature",
      "properties": {
        "@id": "node/5191735700",
        "brand": "Dick's Sporting Goods",
        "city": "",
        "revenue": " $41,980,000 ",
        "name": " Store Number: 453 "
      },
      "geometry": {
        "type": "Point",
        "coordinates": [
          -76.9341244,
          40.2220213
        ]
      }
    },
    {
      "type": "Feature",
      "properties": {
        "@id": "node/5240452321",
        "brand": "Dick's Sporting Goods",
        "city": "",
        "revenue": " $43,490,000 ",
        "name": " Store Number: 496 "
      },
      "geometry": {
        "type": "Point",
        "coordinates": [
          -74.1676063,
          40.5864406
        ]
      }
    },
    {
      "type": "Feature",
      "properties": {
        "@id": "node/5276551311",
        "brand": "Dick's Sporting Goods",
        "city": "",
        "revenue": " $22,520,000 ",
        "name": " Store Number: 419 "
      },
      "geometry": {
        "type": "Point",
        "coordinates": [
          -73.1112091,
          44.4429017
        ]
      }
    },
    {
      "type": "Feature",
      "properties": {
        "@id": "node/5388234507",
        "brand": "Dick's Sporting Goods",
        "city": "",
        "revenue": " $30,560,000 ",
        "name": " Store Number: 263 "
      },
      "geometry": {
        "type": "Point",
        "coordinates": [
          -73.4103316,
          40.7988388
        ]
      }
    },
    {
      "type": "Feature",
      "properties": {
        "@id": "node/5451253521",
        "brand": "Dick's Sporting Goods",
        "city": "",
        "revenue": " $6,190,000 ",
        "name": " Store Number: 244 "
      },
      "geometry": {
        "type": "Point",
        "coordinates": [
          -73.8561927,
          40.9660031
        ]
      }
    },
    {
      "type": "Feature",
      "properties": {
        "@id": "node/5486906525",
        "brand": "Dick's Sporting Goods",
        "city": "",
        "revenue": " $27,440,000 ",
        "name": " Store Number: 97 "
      },
      "geometry": {
        "type": "Point",
        "coordinates": [
          -73.2065863,
          42.464864
        ]
      }
    },
    {
      "type": "Feature",
      "properties": {
        "@id": "node/5487812478",
        "brand": "Dick's Sporting Goods",
        "city": "Tarentum",
        "revenue": " $35,270,000 ",
        "name": " Store Number: 271 "
      },
      "geometry": {
        "type": "Point",
        "coordinates": [
          -79.7934904,
          40.5726336
        ]
      }
    },
    {
      "type": "Feature",
      "properties": {
        "@id": "node/5493744137",
        "brand": "Dick's Sporting Goods",
        "city": "",
        "revenue": " $23,740,000 ",
        "name": " Store Number: 125 "
      },
      "geometry": {
        "type": "Point",
        "coordinates": [
          -76.0668509,
          43.0452098
        ]
      }
    },
    {
      "type": "Feature",
      "properties": {
        "@id": "node/5567350279",
        "brand": "Dick's Sporting Goods",
        "city": "",
        "revenue": " $68,930,000 ",
        "name": " Store Number: 353 "
      },
      "geometry": {
        "type": "Point",
        "coordinates": [
          -76.3113517,
          40.0670659
        ]
      }
    },
    {
      "type": "Feature",
      "properties": {
        "@id": "node/5607583383",
        "brand": "Dick's Sporting Goods",
        "city": "Natick",
        "revenue": " $42,470,000 ",
        "name": " Store Number: 107 "
      },
      "geometry": {
        "type": "Point",
        "coordinates": [
          -71.3867439,
          42.2980441
        ]
      }
    },
    {
      "type": "Feature",
      "properties": {
        "@id": "node/5800087428",
        "brand": "Dick's Sporting Goods",
        "city": "",
        "revenue": " $42,560,000 ",
        "name": " Store Number: 355 "
      },
      "geometry": {
        "type": "Point",
        "coordinates": [
          -75.4909529,
          40.6473726
        ]
      }
    },
    {
      "type": "Feature",
      "properties": {
        "@id": "node/5862524911",
        "brand": "Dick's Sporting Goods",
        "city": "Monroeville",
        "revenue": " $63,380,000 ",
        "name": " Store Number: 377 "
      },
      "geometry": {
        "type": "Point",
        "coordinates": [
          -79.7977704,
          40.4295278
        ]
      }
    },
    {
      "type": "Feature",
      "properties": {
        "@id": "node/5939556406",
        "brand": "Dick's Sporting Goods",
        "city": "Culpeper",
        "revenue": " $57,470,000 ",
        "name": " Store Number: 2 "
      },
      "geometry": {
        "type": "Point",
        "coordinates": [
          -77.9659686,
          38.4833168
        ]
      }
    },
    {
      "type": "Feature",
      "properties": {
        "@id": "node/5973451196",
        "brand": "Dick's Sporting Goods",
        "city": "",
        "revenue": " $38,570,000 ",
        "name": " Store Number: 357 "
      },
      "geometry": {
        "type": "Point",
        "coordinates": [
          -73.7268933,
          40.6625597
        ]
      }
    },
    {
      "type": "Feature",
      "properties": {
        "@id": "node/6362205282",
        "brand": "Dick's Sporting Goods",
        "city": "",
        "revenue": " $2,790,000 ",
        "name": " Store Number: 239 "
      },
      "geometry": {
        "type": "Point",
        "coordinates": [
          -75.5405788,
          39.8313385
        ]
      }
    },
    {
      "type": "Feature",
      "properties": {
        "@id": "node/6399810385",
        "brand": "Dick's Sporting Goods",
        "city": "",
        "revenue": " $66,630,000 ",
        "name": " Store Number: 250 "
      },
      "geometry": {
        "type": "Point",
        "coordinates": [
          -79.9620704,
          37.3072637
        ]
      }
    },
    {
      "type": "Feature",
      "properties": {
        "@id": "node/6422017285",
        "brand": "Dick's Sporting Goods",
        "city": "",
        "revenue": " $65,290,000 ",
        "name": " Store Number: 433 "
      },
      "geometry": {
        "type": "Point",
        "coordinates": [
          -77.1739835,
          38.7731697
        ]
      }
    },
    {
      "type": "Feature",
      "properties": {
        "@id": "node/6476908404",
        "brand": "Dick's Sporting Goods",
        "city": "",
        "revenue": " $29,260,000 ",
        "name": " Store Number: 169 "
      },
      "geometry": {
        "type": "Point",
        "coordinates": [
          -75.5394234,
          39.1929113
        ]
      }
    },
    {
      "type": "Feature",
      "properties": {
        "@id": "node/6522609508",
        "brand": "Dick's Sporting Goods",
        "city": "",
        "revenue": " $36,970,000 ",
        "name": " Store Number: 42 "
      },
      "geometry": {
        "type": "Point",
        "coordinates": [
          -77.4985118,
          37.5811277
        ]
      }
    },
    {
      "type": "Feature",
      "properties": {
        "@id": "node/6592960555",
        "brand": "Dick's Sporting Goods",
        "city": "",
        "revenue": " $69,130,000 ",
        "name": " Store Number: 267 "
      },
      "geometry": {
        "type": "Point",
        "coordinates": [
          -74.9674247,
          40.0855698
        ]
      }
    },
    {
      "type": "Feature",
      "properties": {
        "@id": "node/6634695172",
        "brand": "Dick's Sporting Goods",
        "city": "",
        "revenue": " $34,220,000 ",
        "name": " Store Number: 138 "
      },
      "geometry": {
        "type": "Point",
        "coordinates": [
          -77.0546743,
          39.0352395
        ]
      }
    },
    {
      "type": "Feature",
      "properties": {
        "@id": "node/6682990966",
        "brand": "Dick's Sporting Goods",
        "city": "",
        "revenue": " $28,890,000 ",
        "name": " Store Number: 195 "
      },
      "geometry": {
        "type": "Point",
        "coordinates": [
          -77.464525,
          37.6705494
        ]
      }
    },
    {
      "type": "Feature",
      "properties": {
        "@id": "node/6760869740",
        "brand": "Dick's Sporting Goods",
        "city": "",
        "revenue": " $22,270,000 ",
        "name": " Store Number: 382 "
      },
      "geometry": {
        "type": "Point",
        "coordinates": [
          -76.4900294,
          42.4820786
        ]
      }
    },
    {
      "type": "Feature",
      "properties": {
        "@id": "node/6766626815",
        "brand": "Dick's Sporting Goods",
        "city": "",
        "revenue": " $8,720,000 ",
        "name": " Store Number: 115 "
      },
      "geometry": {
        "type": "Point",
        "coordinates": [
          -76.9828313,
          39.5800493
        ]
      }
    },
    {
      "type": "Feature",
      "properties": {
        "@id": "node/6824452500",
        "brand": "Dick's Sporting Goods",
        "city": "",
        "revenue": " $65,910,000 ",
        "name": " Store Number: 314 "
      },
      "geometry": {
        "type": "Point",
        "coordinates": [
          -74.285259,
          39.7091747
        ]
      }
    },
    {
      "type": "Feature",
      "properties": {
        "@id": "node/6925171948",
        "brand": "Dick's Sporting Goods",
        "city": "",
        "revenue": " $60,450,000 ",
        "name": " Store Number: 202 "
      },
      "geometry": {
        "type": "Point",
        "coordinates": [
          -71.1672881,
          42.2573098
        ]
      }
    },
    {
      "type": "Feature",
      "properties": {
        "@id": "node/7115039793",
        "brand": "Dick's Sporting Goods",
        "city": "",
        "revenue": " $68,130,000 ",
        "name": " Store Number: 342 "
      },
      "geometry": {
        "type": "Point",
        "coordinates": [
          -77.5130356,
          38.2927314
        ]
      }
    },
    {
      "type": "Feature",
      "properties": {
        "@id": "node/7272562031",
        "brand": "Dick's Sporting Goods",
        "city": "",
        "revenue": " $13,660,000 ",
        "name": " Store Number: 38 "
      },
      "geometry": {
        "type": "Point",
        "coordinates": [
          -73.8076741,
          41.3291853
        ]
      }
    },
    {
      "type": "Feature",
      "properties": {
        "@id": "node/7624323989",
        "brand": "Dick's Sporting Goods",
        "city": "Erie",
        "revenue": " $12,380,000 ",
        "name": " Store Number: 425 "
      },
      "geometry": {
        "type": "Point",
        "coordinates": [
          -80.1043825,
          42.0699156
        ]
      }
    },
    {
      "type": "Feature",
      "properties": {
        "@id": "node/7823542472",
        "brand": "Dick's Sporting Goods",
        "city": "Bailey's Crossroads",
        "revenue": " $17,250,000 ",
        "name": " Store Number: 172 "
      },
      "geometry": {
        "type": "Point",
        "coordinates": [
          -77.1277007,
          38.852121
        ]
      }
    },
    {
      "type": "Feature",
      "properties": {
        "@id": "node/7945889927",
        "brand": "Dick's Sporting Goods",
        "city": "",
        "revenue": " $2,930,000 ",
        "name": " Store Number: 311 "
      },
      "geometry": {
        "type": "Point",
        "coordinates": [
          -73.4801423,
          41.3793479
        ]
      }
    },
    {
      "type": "Feature",
      "properties": {
        "@id": "node/8237929141",
        "brand": "Dick's Sporting Goods",
        "city": "",
        "revenue": " $47,010,000 ",
        "name": " Store Number: 410 "
      },
      "geometry": {
        "type": "Point",
        "coordinates": [
          -79.1766091,
          37.3665658
        ]
      }
    },
    {
      "type": "Feature",
      "properties": {
        "@id": "node/8331873735",
        "brand": "Dick's Sporting Goods",
        "city": "",
        "revenue": " $59,790,000 ",
        "name": " Store Number: 179 "
      },
      "geometry": {
        "type": "Point",
        "coordinates": [
          -73.9571915,
          41.0968369
        ]
      }
    },
    {
      "type": "Feature",
      "properties": {
        "@id": "node/8476144180",
        "brand": "Dick's Sporting Goods",
        "city": "",
        "revenue": " $20,250,000 ",
        "name": " Store Number: 121 "
      },
      "geometry": {
        "type": "Point",
        "coordinates": [
          -75.6522096,
          39.6743038
        ]
      }
    },
    {
      "type": "Feature",
      "properties": {
        "@id": "node/8584250644",
        "brand": "Dick's Sporting Goods",
        "city": "Victor",
        "revenue": " $52,200,000 ",
        "name": " Store Number: 51 "
      },
      "geometry": {
        "type": "Point",
        "coordinates": [
          -77.4435433,
          43.0306899
        ]
      }
    },
    {
      "type": "Feature",
      "properties": {
        "@id": "node/9118222722",
        "brand": "Dick's Sporting Goods",
        "city": "",
        "revenue": " $15,390,000 ",
        "name": " Store Number: 231 "
      },
      "geometry": {
        "type": "Point",
        "coordinates": [
          -77.3605364,
          38.8632004
        ]
      }
    },
    {
      "type": "Feature",
      "properties": {
        "@id": "node/9172505093",
        "brand": "Dick's Sporting Goods",
        "city": "",
        "revenue": " $61,280,000 ",
        "name": " Store Number: 375 "
      },
      "geometry": {
        "type": "Point",
        "coordinates": [
          -71.052415,
          42.0966357
        ]
      }
    },
    {
      "type": "Feature",
      "properties": {
        "@id": "node/9180216297",
        "brand": "Dick's Sporting Goods",
        "city": "Orchard Park",
        "revenue": " $64,530,000 ",
        "name": " Store Number: 205 "
      },
      "geometry": {
        "type": "Point",
        "coordinates": [
          -78.7866407,
          42.7920049
        ]
      }
    },
    {
      "type": "Feature",
      "properties": {
        "@id": "node/9181240149",
        "brand": "Dick's Sporting Goods",
        "city": "Amherst",
        "revenue": " $55,100,000 ",
        "name": " Store Number: 135 "
      },
      "geometry": {
        "type": "Point",
        "coordinates": [
          -78.8188351,
          42.9868949
        ]
      }
    },
    {
      "type": "Feature",
      "properties": {
        "@id": "node/9432201546",
        "brand": "Dick's Sporting Goods",
        "city": "Waterford",
        "revenue": " $28,360,000 ",
        "name": " Store Number: 78 "
      },
      "geometry": {
        "type": "Point",
        "coordinates": [
          -72.1519598,
          41.3830804
        ]
      }
    },
    {
      "type": "Feature",
      "properties": {
        "@id": "node/9447907062",
        "brand": "Dick's Sporting Goods",
        "city": "Riverhead",
        "revenue": " $46,880,000 ",
        "name": " Store Number: 113 "
      },
      "geometry": {
        "type": "Point",
        "coordinates": [
          -72.7022877,
          40.9228983
        ]
      }
    },
    {
      "type": "Feature",
      "properties": {
        "@id": "node/9517862513",
        "brand": "Dick's Sporting Goods",
        "city": "",
        "revenue": " $23,170,000 ",
        "name": " Store Number: 403 "
      },
      "geometry": {
        "type": "Point",
        "coordinates": [
          -75.9530578,
          43.9792734
        ]
      }
    },
    {
      "type": "Feature",
      "properties": {
        "@id": "node/9528303632",
        "brand": "Dick's Sporting Goods",
        "city": "Newington",
        "revenue": " $16,860,000 ",
        "name": " Store Number: 64 "
      },
      "geometry": {
        "type": "Point",
        "coordinates": [
          -70.8022778,
          43.0936989
        ]
      }
    },
    {
      "type": "Feature",
      "properties": {
        "@id": "node/9684104086",
        "brand": "Dick's Sporting Goods",
        "city": "",
        "revenue": " $11,000,000 ",
        "name": " Store Number: 272 "
      },
      "geometry": {
        "type": "Point",
        "coordinates": [
          -72.8400712,
          41.6734365
        ]
      }
    },
    {
      "type": "Feature",
      "properties": {
        "@id": "node/9885936506",
        "brand": "Dick's Sporting Goods",
        "city": "",
        "revenue": " $41,160,000 ",
        "name": " Store Number: 483 "
      },
      "geometry": {
        "type": "Point",
        "coordinates": [
          -71.7778926,
          42.1956754
        ]
      }
    },
    {
      "type": "Feature",
      "properties": {
        "@id": "node/10172769349",
        "brand": "Dick's Sporting Goods",
        "city": "",
        "revenue": " $44,290,000 ",
        "name": " Store Number: 319 "
      },
      "geometry": {
        "type": "Point",
        "coordinates": [
          -71.2317529,
          42.7696505
        ]
      }
    },
    {
      "type": "Feature",
      "properties": {
        "@id": "node/10236398133",
        "brand": "Dick's Sporting Goods",
        "city": "",
        "revenue": " $17,560,000 ",
        "name": " Store Number: 202 "
      },
      "geometry": {
        "type": "Point",
        "coordinates": [
          -72.9707695,
          43.5852776
        ]
      }
    }
  ]
}
